LocationID,DisNo.,ISO,Country,Subregion,Region,Location,Latitude,Longitude,River Basin
fdf4015cbad28df1537d0de94c0af34f,2000-0021-USA,USA,United States of America,Northern America,Americas,"Crittenden, Daviess, Webster districts (Kentucky province)",,,
018f2d7f660af07db0c732dde694aa53,2000-0067-USA,USA,United States of America,Northern America,Americas,"Bullock, Montgomery districts (Alabama province), Colquitt, Grady, Mitchell, Thomas, Tift districts (Georgia province), Washington district (Floride province), Lonoke, Prairie, Saline districts (Arkansas province)",,,
47dbeba351610a968c5871a5f626e8d5,2000-0080-USA,USA,United States of America,Northern America,Americas,"Kentucky, Ohio provinces",,,"Licking River, Ohio River, Scioto River"
4905b64fba2b30cbd9797a8104c92eeb,2000-0128-USA,USA,United States of America,Northern America,Americas,"Gainesville, Alachua areas (Alachua district, Florida province), Lafayette, Gulf districts (Florida province)",,,
fc536fba4231e565318243bdbc120c66,2000-0175-USA,USA,United States of America,Northern America,Americas,"Fort Worth Texas city (Tarrant district, Texas province), Reagan, Burleson districts (Texas province)",,,
311440a7361606f1732c68908996c413,2000-0232-USA,USA,United States of America,Northern America,Americas,"Franklin, Jefferson districts (Missouri province)",,,"Flat Creek, Bourbeuse, Big and Meramec rivers"
0d1d5da659d0f78da7f7a7cd6dfe3271,2000-0240-USA,USA,United States of America,Northern America,Americas,"Los Alamos, Rio Arriba, Sandoval, Santa Fe districts (New Mexico province)",,,
35c1366a25368508cfee14fb2697f767,2000-0271-USA,USA,United States of America,Northern America,Americas,Oklahoma province,,,"Polecat Creek, Bird Creek, Neosho River, and Caney River"
0c53016aaa346dd9d4f180178220c941,2000-0279-USA,USA,United States of America,Northern America,Americas,Sarasota district (Florida province),,,
b78ab8ae51b4acec216a0d6b92f01e11,2000-0296-USA,USA,United States of America,Northern America,Americas,Liberty district (Texas province),,,
4a58e080873c738c9542d0d899f7b1ad,2000-0297-USA,USA,United States of America,Northern America,Americas,"Franklin, Jefferson, Gasconade districts (Missouri province)",,,
6451dc2bd79495ab50b7eac5ec7b2be9,2000-0338-USA,USA,United States of America,Northern America,Americas,"Adams, Columbia, Crawford, Dane, Dodge, Grant, Green, Iowa, Juneau, La crosse, Lafayette, Monroe, Richland, Rock, Sauk, Vernon districts (Wisconsin province)",,,
ec803141f23749673e5788cf75da5665,2000-0360-USA,USA,United States of America,Northern America,Americas,"Anderson, Benton, Cheatham, Davidson, Henry, Hickman, Houston, Jackson, Knox, Lake, Obion, Perry, Pickett, Stewart districts (Tennessee province)",,,
44de30f55908627219a4cf4082832868,2000-0363-USA,USA,United States of America,Northern America,Americas,"Park, Jefferson, Larimer districts (Colorado province)",,,
9443e224a91989ae1e26241b206e9882,2000-0406-USA,USA,United States of America,Northern America,Americas,"Hanford area (Benton district, Washington province)",,,
a39676f78733744184dd1e7b59af5fc3,2000-0420-CAN,CAN,Canada,Northern America,Americas,"Pine Lake area (Division No. 8 district, Alberta province)",,,
46931a125138bcc621dd6c6f5ce0b117,2000-0433-USA,USA,United States of America,Northern America,Americas,"Texas, Louisiana, Alabama provinces",,,
6a1c81a4ca1ef46bb7e10e57b6ffaf38,2000-0450-USA,USA,United States of America,Northern America,Americas,Alaska province,,,
0e5b6f4141435d37828e97c1e1fe79e3,2000-0463-USA,USA,United States of America,Northern America,Americas,"Granite Falls city (Yellow Medicine, Minnesota province)",,,
8fe07dbef6d0aa2d6126db777e713787,2000-0465-USA,USA,United States of America,Northern America,Americas,"Arizona, California, Colorado, Idaho, Montana, Nevada, New Mexico, Oregon, South Dakota, Texas, Utah, Washington, Wyoming, Florida, North Dakota provinces",,,
329cbfe8ff120179f3f72ba6e4c954a9,2000-0500-USA,USA,United States of America,Northern America,Americas,"Morris, Sussex districts (New Jersey province)",,,
960c93cd048d8b522e62140eb4aec4f5,2000-0502-USA,USA,United States of America,Northern America,Americas,Pennsylvania province,,,
b19b4b3384707cd59a68792f0271be06,2000-0598-USA,USA,United States of America,Northern America,Americas,"Near Yountville city (Napa district, California province)",38.3788333,-122.4133333,
1a59c9722f707d6bcce3d2897161c93f,2000-0614-USA,USA,United States of America,Northern America,Americas,"Xenia city (Greene district, Ohio province)",,,
8ee69ff1754833bcf98630ce4093f67a,2000-0652-USA,USA,United States of America,Northern America,Americas,"Miami-Dade, Monroe, Broward, Collier districts (Florida province)",,,
d66cf9da3e2ed2ab355b4590caa1904c,2000-0756-USA,USA,United States of America,Northern America,Americas,"Buffalo city (Erie district, New York province)",,,
93ad49638ca7ec2f7ff194a2327311ba,2000-0838-USA,USA,United States of America,Northern America,Americas,"Texas, Oklahoma, New Mexico, Arkansas, Missouri, Minnesota provinces",,,
bd826773f78a312face2252d8c15730c,2000-0865-USA,USA,United States of America,Northern America,Americas,Maui district (Hawaii province),,,
17f0fd70d22110f097db8f88da8e9a13,2000-0919-USA,USA,United States of America,Northern America,Americas,"Alabama, Georgia, Louisiana, North Carolina, South Carolina, Tennessee, Virginia, New York, Pennsylvania, Massachussetts provinces",,,
a1e83d7fa3190a7286debf290ce4e77d,2000-0937-USA,USA,United States of America,Northern America,Americas,"Tuscaloosa district (Alabama province), Connecticut, Florida, Georgia, Massachusetts, Mississippi, Norh Carolina, New Jersey, New York, Pennsylvania, Rhode Island provinces",,,
c79368b1cbd39a21c68c624bb0c562fd,2000-9339-USA,USA,United States of America,Northern America,Americas,"South Carolina, Georgia, Alabama, Florida, Louisiana, Texas provinces",,,
5751b217f6d325c674906f4a43b87071,2000-9712-USA,USA,United States of America,Northern America,Americas,Wyoming province,,,
99317952bfbde052f7731817e3763423,2001-0052-CAN,CAN,Canada,Northern America,Americas,Quebec province,,,
f224b66f0817a9e29882a65a17e3270b,2001-0099-USA,USA,United States of America,Northern America,Americas,"Seattle city (King district), Tacoma city (Pierce district), Olympia city (Thurston district) (Washington province)",47.149,-122.7266667,
4129e64535f82c2d7427044b958c8144,2001-0102-USA,USA,United States of America,Northern America,Americas,"Calhoun, Lee, Pontotoc, Prentiss, Union districts (Mississippi province)",,,
26027015ef5f04b703037d851cdc6b5b,2001-0106-USA,USA,United States of America,Northern America,Americas,"Virginia, New Jersey, Pennsylvania, North Carolina, West Virginia, Maryland provinces",,,
f592852d19b8a08672ab6af64660de85,2001-0145-USA,USA,United States of America,Northern America,Americas,"Kearny, Trego, Ellis, Rooks, Ford, Osborne, Smith, Jewell, Edwards, Republic, Washington districts (Kansas province), Union city (Franklin district, Missouri province), Johnson, Pettis, Cooper, Callaway, St Charles, Gentry, Worth, Clark, Madison districts (Missouri), Beaver, Pontotoc, Coal, Johnston, Atoka, Haskell, Pottawatomie districts (Oklahoma province), Wichita, Cooke, Carson, Hutchinson, Hansford, Wheeler districts (Texas province), Thayer, Gage, Sarpy, Webster, Nuckolls districts (Nebraska province), Mills, Pottawattamie, Guthrie, Boone, Hamilton, Wapello, Johnson, Black Hawk, Benton, Fayette, Webster, Ringgold districts (Iowa province), Madison district (Illinois province)",,,
f95f9e974eed9b98aaa0ceb43450575a,2001-0194-USA,USA,United States of America,Northern America,Americas,"Marion, Clay districts (Florida province)",,,
875c234a9d4b4f94519dbb0af183fc91,2001-0203-CAN,CAN,Canada,Northern America,Americas,"Saskatchewan, Alberta",,,
f7878def899a9a3c017db67551b677cb,2001-0242-USA,USA,United States of America,Northern America,Americas,"Texas, Mississippi, Louisiana, Florida, Pennsylvania, South Carolina, North Carolina, Georgia, Pensylvania, New Jersey, Virginia, Iowa provinces",,,
e67074f1d937b9b03eda1621ccba83cc,2001-0262-USA,USA,United States of America,Northern America,Americas,"Cleveland area (Henry district, Illinois province), Barstow, Osborn areas (Rock Island district, Illinois province)",,,ROck river
b3fe05a4aa7e5bf1aa3abc82fad42402,2001-0266-USA,USA,United States of America,Northern America,Americas,"New Hampshire, Vermont, Maine, Massachusetts, Rhode Island provinces",,,
f8d83830c726cd01cf5eb6f45094af6e,2001-0268-USA,USA,United States of America,Northern America,Americas,"Minnesota, Iowa, Wisconsin, Illinois provinces",,,"Minnesota, Mississippi, St. Croix and Red"
febe9b5ca540b191dc2377137375b517,2001-0270-USA,USA,United States of America,Northern America,Americas,"Hoisington city (Barton district, Kansas province)",,,
6dab3f46a54553c8c1ba065f296ca031,2001-0303-USA,USA,United States of America,Northern America,Americas,Florida province,,,
e214a0f963ce02deda0b615315072884,2001-0340-CAN,CAN,Canada,Northern America,Americas,Alberta province,,,
0dcd10bfe6f706a4860a1f26e447b8e9,2001-0351-USA,USA,United States of America,Northern America,Americas,"Blue Grass, Bettendorf cities (Scott district, Iowa province), Leon city (Decatur district, Iowa province)",,,
083158458ab1974aa99743a97a1ee3ea,2001-0451-USA,USA,United States of America,Northern America,Americas,"Oregon, Washington, Idaho, California, Nevada, Colorado, Arizona, Wyoming, Texas, Oklahoma provinces",,,
76961cfe2c080bb356e88b8f2410377a,2001-0460-USA,USA,United States of America,Northern America,Americas,Virginia province,,,"Mullens, Pineville, Welch, Corinne, Kimble, Dorothy. Guyandotte and Tug Fork rivers"
13e5b16a9a95c4d6de9c63625f3b1b03,2001-0473-USA,USA,United States of America,Northern America,Americas,"Siren city (Burnett district, Wisconsin province)",,,
3e1a92b16948b7201eb45ac5029590d5,2001-0474-USA,USA,United States of America,Northern America,Americas,"Brainerd city (Crow King district, Minnesota province)",,,
980306620017e2940eaa4486a395208f,2001-0477-USA,USA,United States of America,Northern America,Americas,"Watkins area (Adams district, Colorado province)",,,
96f7a5c016214416e6cd87251b6069c6,2001-0564-USA,USA,United States of America,Northern America,Americas,"Cordell city (Washita district, Oklahoma province), Polk, Merrick, Hamilton districts (Nebraska province)",,,
2fda735d09e21ebda7653e185e20e553,2001-0566-USA,USA,United States of America,Northern America,Americas,"Howard, Prince George's districts (Maryland province)",,,
5937ff9649471ecec1710652d74ccd19,2001-0601-USA,USA,United States of America,Northern America,Americas,"Pasadena city (Harris district, Texas province)",,,
a29495a10dd92932117cdd616a3df5f1,2001-0602-USA,USA,United States of America,Northern America,Americas,"Hondo city (Medina district, Texas province)",,,
1f9cc520e1ec5f884efbb16e4443935c,2001-0722-USA,USA,United States of America,Northern America,Americas,"Tennessee, Kentucky, West Virginia, Virginia, Georgia provinces",,,
d3ba5c2881c151d919de91b31db083ed,2001-0724-USA,USA,United States of America,Northern America,Americas,Texas province,,,"Nueces, Colorado, Guadalupe, Mission, Frio, San Antonio Oso Creek in Corpus Christi, Yegya Creek."
f24d09690dd2e89f95811a8ea1e149d8,2001-0770-USA,USA,United States of America,Northern America,Americas,"Illinois, Indiana, Iowa, Kansas, Michigan, Minnesota, Missouri, Nebraska, North Dakota, Ohio, South Dakota, Wisconsin provinces",,,
fb6081222f6ff892395789787dd35b1d,2001-0771-USA,USA,United States of America,Northern America,Americas,"Tennesse, Kentucky provinces",,,
7ec5b288d6a7308ec60f8bd42784ab16,2001-0772-USA,USA,United States of America,Northern America,Americas,District of Columbia province,,,
fd2cc0ce25acc075a262d55942aa64c0,2001-0773-USA,USA,United States of America,Northern America,Americas,"Jakson town (Dakota district, Nebraska province)",,,
bdc6653c73b7992c2dcc4b575ad2f753,2002-0017-USA,USA,United States of America,Northern America,Americas,"Alabama, Louisiana, Virginia, North Carolina, South Carolina, Mississipi, Georgia, Pensylvania,",,,
6fa0c95e2530f6c5d55a8f196e16f3ec,2002-0092-USA,USA,United States of America,Northern America,Americas,"Fallbrok area (San Diego district, Californie province)",,,
020dcfd6cd6b6330bdb39fe7e0e629dd,2002-0119-USA,USA,United States of America,Northern America,Americas,"Cleveland, Comanche, Creek, Garvin, Grady, Greer, Harmon, Jackson, Kiowa, Lincoln, McClain, Nowata, Pottawatomie, Rogers, Stephens, Tillman, Tulsa, Alfalfa, Beaver, Beckham, Blaine, Caddo, Canadian, Cimarron, Custer, Dewey, Ellis, Garfield, Grant, Harper, Kay, Kingfisher, Logan, Major, Noble, Oklahoma, Osage, Pawnee, Payne, Roger Mills, Texas, Washington, Washita, Woods, Woodward districts (Oklahoma province), Missouri, Kansas, New York, Indiana, Ohio provinces",,,
6ac8d5efc148baf70e0f061c65bac427,2002-0128-USA,USA,United States of America,Northern America,Americas,"Oklahoma, Missouri, Wisconsin, Michigan, Arkansas provinces",,,
9c9d9f755311e2bcb8160c91758d1dd6,2002-0165-USA,USA,United States of America,Northern America,Americas,"Sevier, Blount, Knox, Hawkins districts (Tennessee province), Cumberland, Bell districts (Kentucky province), Wise, Smyth, Washington districts (Virginia province), Cabell district (West Virginia province), North Carolina, Mississippi, Arkansas, Texas provinces",,,Cumberland river
0b3ba8ccf130cfde28d6b3a3973c925c,2002-0183-USA,USA,United States of America,Northern America,Americas,"Tennessee, Virginia, Kentucky, Ohio, Arkansas, Oklahoma, Texas provinces",,,"Cumberland, Kentucky and Licking, Tygart and Triplett Creeks, Cumberland, Powell, Clinch, north fork of Holston, Powell, North Fork, Ohio, Buffalo and Black rivers, Poteau, Trinity"
1584c6b6fd322ba822a14583176304c1,2002-0184-USA,USA,United States of America,Northern America,Americas,Lincoln district (New Mexico province),,,
9dd35dc624c9958ff14d316f98e56e8c,2002-0266-USA,USA,United States of America,Northern America,Americas,"Pike district (Kentucky province), Virginia province",,,"Tug Fork of the Big Sandy River, Knox Creek"
c487c3dcd39b26f2e47c88b493d45135,2002-0283-USA,USA,United States of America,Northern America,Americas,"Happy town (Randall, Swisher districts, Texas province)",,,
5bfef99798c32a229a0cd72306e2a1f4,2002-0287-USA,USA,United States of America,Northern America,Americas,"Wayne, Jefferson districts (Illinois province)",,,
68a3452e3143ee9da4349d67a1af781e,2002-0310-USA,USA,United States of America,Northern America,Americas,"Breckinridge, Meade, Crittenden, Webster, Hopkins, Ohio, Hardin, Edmonson districts (Kentucky province), Bollinger, Howell districts (Missouri province), Charles, Calvert, Dorchester, Wicomico, Cecil districts (Maryland province), Illinois (Clay,Union, Johnson,Pope, Moultrie, Saline, Bond), Gordon district (Georgia province), Atchison district (Kansas province), Erie, Allegany districts (New York province), Stark district (Ohio province), Indiana, Mercer, Venango, Butler, Armstrong, Columbia, Lebanon, Allegheny districts (Pennsylvania province), Rutherford, Lake, Henry, Carter districts (Tennessee province), Virginia (Shenandoah, Greensville, Bedford, (Campbell, Nottoway, Prince George), Marshall district (West Virginia province), Pontotoc, Chickasaw districts (Mississippi province), Perry district (Indiana province)",,,
37697bcf3c2684254a602e957e37ca13,2002-0312-USA,USA,United States of America,Northern America,Americas,Arizona province,,,
85a0015d84c85b4320c2a642a0fdd048,2002-0331-USA,USA,United States of America,Northern America,Americas,"Georgia, Alaska provinces",,,
ab1029ce8274e14b4d8e6eb90bc25fe0,2002-0351-USA,USA,United States of America,Northern America,Americas,Colorado province,,,
37697bcf3c2684254a602e957e37ca13,2002-0355-USA,USA,United States of America,Northern America,Americas,Arizona province,,,
37697bcf3c2684254a602e957e37ca13,2002-0379-USA,USA,United States of America,Northern America,Americas,Arizona province,,,
842179efcddeb7e25e21f3978d2b2a2e,2002-0404-CAN,CAN,Canada,Northern America,Americas,"Fort Frances, Rainy River, Alberton, Atikokan, Chapple, Dawson, Emo, La Vallee cities (Kenora district, Ontario province), Ignace, Lake of the Woods, Nestor Falls, Sioux Narrows, Machin cities (Rainy river district, Ontario province)",,,
f9d6728d58b903f898dd9d2658424195,2002-0409-CAN,CAN,Canada,Northern America,Americas,"Lac-Saint-Jean-Est, Le Domaine-du-Roy, Le Saguenay-et-son-Fjord, Maria-Chapdelaine, Nord-du-Québec districts (Quebec / Québec province)",,,
e315f418914918d1881c6075e12ff7fb,2002-0411-USA,USA,United States of America,Northern America,Americas,"Comal, Guadalupe, Bandera, Uvalde, McMullen, Taylor districts (Texas province)",,,"San Antonio, Medina, San Marcos, Sabinal, Frio, Pedernales, Nueces, Guadalupe, Blanco, Atascosa"
f8975662ae91f21f5c628aa34770805b,2002-0502-USA,USA,United States of America,Northern America,Americas,"Alabama, district of Columbia, Illinois, Indiana, Louisiana, Mississippi, Texas, Florida, Massachusetts, Missouri, New York City, Ohio, Georgia, Kentucky, Maryland, Michigan, Nebraska, South Dacota, Tennessee, Texas, Virginia, Wisconsin",,,
5af70e98bbf55e338d089665cc5224e6,2002-0569-USA,USA,United States of America,Northern America,Americas,"Ladysmith city (Rusk district, Wisconsin province)",,,
dc7b28708ba4bf61e2abd1b4203ff5dc,2002-0600-USA,USA,United States of America,Northern America,Americas,Georgia province,,,
822871cd1ec087cf19ab445ce49062dd,2002-0618-USA,USA,United States of America,Northern America,Americas,"Claremont, Glendora, La Verne areas (Los Angeles district, California province))",,,
dff3f76a7a88ecd1a264bd395a09297b,2002-0625-USA,USA,United States of America,Northern America,Americas,Oregon province,,,
8c958f4fc8f1defd53010ec800ba755a,2002-0652-USA,USA,United States of America,Northern America,Americas,"Louisiane, Mississippi, Alabama, Tennessee provinces",,,
afd0bba560ad4ad5f95cebfe3c3024d5,2002-0667-USA,USA,United States of America,Northern America,Americas,,,,
381b300b1cdeeb42482c3e628646c250,2002-0687-CAN,CAN,Canada,Northern America,Americas,"Alberta, Ontario, Quebec",,,
4001bb7dacb978df2c4db12221b32dc4,2002-0700-USA,USA,United States of America,Northern America,Americas,"Tipton, Carroll, Montgomery, Sumner, Bedford, Coffee, Morgan, Cumberland, Anderson districts (Tennessee province), Henry, Dale, Fayette, Walker, Winston, Lamar, Cullman, Tuscaloosa, Jefferson, Cherokee districts (Alabama province), Van Wert, Paulding, Putnam, Defiance, Athens, Logan, Union, Seneca, Ottawa districts (Ohio province), Allen district (Kentucky province), Cross, Crittenden, Mississippi districts (Arkansas province), Appling, Cherokee, Pickens, Dawson, Atkinson, Coffee districts (Georgia province), Blackford district (Indiana province), Lowndes, Winston, Noxubee, Oktibbeha districts (Mississippi province), Mercer district (Pennsylvania province), McCormick district (South Carolina province)",,,
35d759aa2bff24f59596e635dc8563ae,2002-0724-USA,USA,United States of America,Northern America,Americas,"St. Tammany, Terrebonne, Lafayette, Acadia, Evangeline, Rapides districts (Louisiana province)",,,
e92af25c8b787754578742a2d1acc613,2002-0751-USA,USA,United States of America,Northern America,Americas,"Washington DC (District of Columbia district, District of Columbia province), North Carolina, South Carolina, Virginia, New York, Pennsylvania, Kentucky, New Jersey, Maryland, Missouri, Tennesse provinces",,,
6209a6b37c8555cee3b95abc76fda40d,2002-0793-USA,USA,United States of America,Northern America,Americas,"Marin, Los Angeles, Santa Cruz districts (California province), Oregon, Nevada provinces",,,
cca51308936a85799f3662aa0b3df1e6,2002-0802-USA,USA,United States of America,Northern America,Americas,"Oklahoma, Massachusetts, New York, Arkansas, Missouri, New Mexico, Louisiana, Texas provinces",,,
4edc8c1c3765b309c0bc596793490b86,2002-0880-USA,USA,United States of America,Northern America,Americas,"Fulton, Tioga, Broome, Oswego, Delaware, Dutchess districts (New York province), Wayne district (Pennsylvania province), Connecticut, Massachusetts, Michigan, New Hampshire, New Jersey, Ohio, Wisconsin provinces",,,
f24d09690dd2e89f95811a8ea1e149d8,2002-9853-USA,USA,United States of America,Northern America,Americas,"Illinois, Indiana, Iowa, Kansas, Michigan, Minnesota, Missouri, Nebraska, North Dakota, Ohio, South Dakota, Wisconsin provinces",,,
913ecac7739d105ea477266738019bcc,2003-0085-USA,USA,United States of America,Northern America,Americas,"Delaware, Kentucky, Massachusetts, Maryland, North Carolina, New Hampshire, New Jersey, New York, District of Columbia, Ohio, Pennsylvania, Rhode Island, Tennessee, Virginia, Vermont, West Virginia, Illinois, Missouri, Iowa, Nebraska, Connecticut provinces",,,
dd6eb6f589c09740f176fd31d43bbe65,2003-0087-CAN,CAN,Canada,Northern America,Americas,"Badger town (Division No. 6 district, Newfoundland and Labrador province)",,,"Exploits, Red Indian, Badger"
e5202bd333d156b43dcfda233cf55643,2003-0139-USA,USA,United States of America,Northern America,Americas,"Mitchell, Worth districts (Georgia province), Jackson district (Alabama province) North Carolina, South Carolina, Tennessee provinces",,,
3df02e797d098d28b9a64b4ebcabf874,2003-0147-USA,USA,United States of America,Northern America,Americas,"Denver, Boulder districts (Colorado province), Wyoming province",,,
9950fbc75f6c33e5e7c87999a25348b5,2003-0210-USA,USA,United States of America,Northern America,Americas,"Colbert, Lauderdale, Limestone, Madison, Jackson, Dekalb, Lamar, Walker,St Clair, Talladega, Shelby, Clay districts (Alabama province), Mississippi, Craighead, White, Woodruff, Cross districts (Arkansas province), Adams, Weld, Morgan districts (Colorado province), Cherokee, Franklin, Madison, Elbert, Hart, Heard, Coweta districts (Georgia province), Marion, Mahaska, Lee, Van Buren, Jefferson, Henry, Louisa districts (Iowa province), Adams, Hancock, Mc Donough, Bureau, Henry, Brown, Mason, Fulton, Pope, Schuyler, Sangamon, Pulaski, Massac, Alexander, Jasper, Mercer, Warren, Tazewell districts (Illinois province), Perry, Kosciuscko, Putnam districts (Indiana province), Crawford, Wyandotte, Leavenworth, Neosho, Labette, Cherokee, Butler, Greenwood, Osage, Woodson, Allen, Douglas, Anderson, Linn, Marion districts (Kansas province), Calloway, Webster,Daviess, Mason, Lewis, Union, Henderson, Pulaski districts (Kentucky province), Lawrence, Cass, Platte, Clay, Jackson- Kansas city, Greene, Christian, Camden, Lewis, Barton, Cedar, Polk, Hickory, Dallas, Jasper, Johnson, Newton, Dade, Pettis, Dunklin, Pemiscot, Putnam, Scott, Knox, Scotland, Clark, Macon, Shelby, Mercer, Lafayette, Saline, Cape Girardeau, Bollinger, Pulaski districts (Missouri province), Marshall, Benton, Tippah, Alcorn, Newton, Scott, Chickasaw, Monroe, Lee, Itawamba, Madison, Sunflower districts (Mississippi province), Washington, Vance, Chowan, Bertie, Hertford, Northamton districts (North Carolina province), Saunders district (Nebraska province), Okhlaoma, Moore-Cleveland, Ottawa, Stephens, Creek, Lincoln, Canadian, Caddo, Osage, Noble, Le Flore, Marshall, Love, Jefferson districts (Okhahoma province), Aiken, Abbeville, Williamsburg districts (South Carolina province), Perkins, Todd didstricts (South Dakota province), Dyer, Madison, Hamilton-Chattanooga, Gibson, Weakley, Henry, Stewart, Henderson, Carroll, Montgomery, Robertson, Williamson, Davidson, Cannon, Lincoln, Lawrence, Hardin, McNairy districts (Tennessee province), ood, Upshur, Harrison, Marion districts (Texas province)",,,
f7d35800ee354a760abedd625d31d8b4,2003-0231-CAN,CAN,Canada,Northern America,Americas,"Colchester, Cumberland districts (Nova Scotia/Nouvelle Ecosse province)",,,"Philip, Black, Little LaHave, Salmon, Corner Brook"
a75e6565fbeb802376f9ec8cd5b1265d,2003-0299-USA,USA,United States of America,Northern America,Americas,"Summerhaven area (Pima district, Arizona province), Lemmon mount (Pima district, Arizona province)",,,
ed3d6e57c5d489aa7d7d78d48b23f138,2003-0334-USA,USA,United States of America,Northern America,Americas,"Allen, Carroll, Adams, Cass, Howard, Tipton, Wells, Miami, Boone, Jennings, Clay, Tippecanoe, Huntington, Decatur districts (Indiana province), Allen, Auglaize, Van Wert, Darke, Mercer, Miami districts (Ohio province), Mercer, Shelby, Logan, Hamilton, Winnebago districts (Illinois province)",,,"Wabash, White, Mississinewa, St Mary's, Eel, White, Tippecanoe, Muscatatuck, West Fork Whitewater, Wilcat, Deer and Pipe Creeks, Chagrin, Blanchardn Maumee, Miami, Pike, Scioto, Warren, Great Miami, Sandusky and White"
65b1ab665faaaf370991ab93922c2cf9,2003-0369-CAN,CAN,Canada,Northern America,Americas,"British Columbia, Alberta, Saskatchewan, Manitoba provinces",,,
8726194ca81c69725244df2032f65c60,2003-0413-USA,USA,United States of America,Northern America,Americas,Palm Beach district (Florida province),,,
48c3b98fe6b6c537b01a88bea9bccbc3,2003-0417-CAN,CAN,Canada,Northern America,Americas,"Bois-Franc municipality (La Vallée-de-la-Gatineau district, Quebec province)",,,"Nicolet, Riviere des Pins"
fc21653bd5a35cf6590c6f0d4d9e9220,2003-0448-BMU,BMU,Bermuda,Northern America,Americas,,,,
7ec368c7a3b9988000c181908afdf58f,2003-0468-CAN,CAN,Canada,Northern America,Americas,Ontario province,,,
bdce2d89310579aa2fd2a064087b6923,2003-0468-USA,USA,United States of America,Northern America,Americas,"North Carolina, Maryland, Virginia, West Virginia, Delaware, Pennsylvania, New Jersey, District of Columbia provinces",,,
f11351deb725f2fc25ad395b90057599,2003-0487-CAN,CAN,Canada,Northern America,Americas,"Nova Scotia, Prince Edward Island provinces",,,
8b3a09e01b5e4bfc5ec612057c0b2215,2003-0511-CAN,CAN,Canada,Northern America,Americas,"Squamish, Pemberton, Whistler, Mount Currie cities (Squamish-Lillooet district, Bristish Columbia province), Fraser Valley city (Fraser Valley district, British Columbia province), Capital district (Bristish Columbia province)",,,"Squamish, Cheakamus, Lillooet, Sooke, Chilliwack, Ryan, Rutherford Creek"
e3b095bef99a9e7f2b3d1dcd607e40c1,2003-0511-USA,USA,United States of America,Northern America,Americas,"Snohomish, Mason, Grays Harbor, Jefferson, Clallam, Skagit, Whatcom districts (Washington province)",,,"Skokomish, Nooksack, Skagit, Stillaguamish, Sauk, Stehekin"
449092b59518297a89c999e58509870e,2003-0518-USA,USA,United States of America,Northern America,Americas,"Fontana, Rancho Cucamonga areas (San Bernardino district, California province)",,,
721193611305941fb5a3272b1cc74421,2003-0595-USA,USA,United States of America,Northern America,Americas,"West Virginia, Tennessee, Kentucky, Pennsylvania, North Carolina, Virginia provinces",,,
a22efbe6071b05039493a868f1ac8dd8,2003-0618-USA,USA,United States of America,Northern America,Americas,"Pennsylvania, Connecticut, New York, New Jersey, Vermont, Virginia, Massachusetts, Rhode Island provinces",,,
5e864023332900b9f57b0afdebd0a00f,2003-0623-USA,USA,United States of America,Northern America,Americas,"Paso Robles, Templeton, Atascadero, Cambria, Morro Bay, Oceano villages (San Luis Obispo district, California province)",35.7005,-121.1005,
97e5432c4351084379960871b1964204,2003-0633-USA,USA,United States of America,Northern America,Americas,San Bernardino district (California province),,,
6e2f022a3648c38d6702f718d57e481d,2003-0663-USA,USA,United States of America,Northern America,Americas,Los Angeles district (California province),,,
27ff55bf52a6899926bd87ee3d976a9b,2003-0741-USA,USA,United States of America,Northern America,Americas,"Morgan, Leslie, Breathitt, Menifee districts (Kentucky province), Wayne, Cabell, Kanawha, Lincoln, Mingo districts (West Virginia province), Dickenson, Tazewell, Wise, Buchanan districts (Virginia province), Alabama, Connecticut, Delaware, Florida, Georgia, Massachusetts, Maryland, North Carolina, New Hampshire, New Jersey, New York, Pennsylvania, Rhode Island, South Carolina, Tennessee, Vermont provinces",,,
793b06c570e0e254b32816f24d8de79b,2003-0756-USA,USA,United States of America,Northern America,Americas,"Tennessee, Alabama, Georgia provinces",,,
2638a04b05cccb27aa76b3ee42e5f159,2003-0780-USA,USA,United States of America,Northern America,Americas,"Mason, Tazewell, Logan, Will, De Witt districts (Illinois province)",,,
7e6fe71bd59f1308a1badf54344dc8a5,2003-0782-USA,USA,United States of America,Northern America,Americas,"Orleans, St. John the Baptist, Terrebonne, St. Tammany, Tangipahoa districts (Louisiana province), Hancock, Harrison, Jackson, Pike, Walthall districts (Mississippi province), Bay district (Florida province), Mobile, Baldwin, Lee districts (Alabama province), Sumter, Bulloch, Fulton, DeKalb, Cobb, Clayton, Gwinnett districts (Georgia province), Wake district (North Carolina province)",,,
97e5432c4351084379960871b1964204,2003-0786-USA,USA,United States of America,Northern America,Americas,San Bernardino district (California province),,,
7988ee991c9ec08eccabb8a3ce2aeda7,2003-0827-USA,USA,United States of America,Northern America,Americas,"Beaumont, Port Arthur areas (Jefferson district, Texas province), Sugar Land area (Fort Bend district, Texas province), Smith district (Mississipi province), Dallas, Harris districts (Texas province), Los Angeles district (California province), Alabama, Arkansas, Florida, Georgia, Louisiana, Maryland, Missouri, North Carolina, Oklahoma, South Carolina, Tennesse, Virginia, West Virginia provinces",,,
8f779ed2a1c70bb9d7bb7fa47b35690e,2003-0829-USA,USA,United States of America,Northern America,Americas,"Alabama, Illinois, Indiana, Louisiana, Michigan, Missouri, Mississippi, New York, Tennessee,Texas, Pennsylvania, Nebraska, Wisconsin provinces",,,
1594d352cebd401ae0768e616ebfe4fd,2003-0830-USA,USA,United States of America,Northern America,Americas,"Arkansas, Texas provinces",,,
99317952bfbde052f7731817e3763423,2004-0031-CAN,CAN,Canada,Northern America,Americas,Quebec province,,,
0d62ce31ee5369c2eef31086a3cc090f,2004-0031-USA,USA,United States of America,Northern America,Americas,"North Carolina, South Carolina, Iowa, Missouri, Ohio, Maryland, Nebraska, New York, Virginia, Minnesota, Indiana, Illinois, Pennsylvania, Oklahoma, Georgia, Kansas, New Jersey, West Virginia, Maine provinces",,,
2a8d19d41e18062d6fa6c1fbddc0b726,2004-0074-CAN,CAN,Canada,Northern America,Americas,"Nova Scotia, New Brunswick, Prince Edward Island provinces",,,
462b56788ee916d4482596fec30159d2,2004-0121-USA,USA,United States of America,Northern America,Americas,"Arkansas, Louisiana, North Carolina, Oklahoma, South Carolina, Texas, Virginia, Kansas, Missouri, Mississippi provinces",,,
3282eeb43c9b7a5b639d7e3cde928dbc,2004-0146-CAN,CAN,Canada,Northern America,Americas,"Winnipeg (Division No. 11 district, Manitoba province) Selkirk, St Clements, Breezy Point (Division No.13 district, Manitoba province)",,,Red river
f3d47fa0d4b007c956fa5e7dde2f5eaf,2004-0146-USA,USA,United States of America,Northern America,Americas,"Antigo area (Langlade district, Wisconsin province), Pembina, Walsh districts (North Dakota province)",,,
46e95c8a928c33b87a5c10d57eb909b9,2004-0196-USA,USA,United States of America,Northern America,Americas,"Los Angeles, Riverside, San Diego, Santa Barbara districts (California province)",,,
ad59814de937c8dc5b4d5a1f71157857,2004-0245-USA,USA,United States of America,Northern America,Americas,"Morgan, Sangamon, Scott districts (Illinois province), Clark, Floyd, Washington districts (Indiana province), Adair, Appanoose, Benton, Clay, Dallas, Grundy, Humboldt, Jones, Linn, Marshall, Pocahontas, Story, Warren districts (Iowa province), Jackson, Linn, Shawnee, Republic districts (Kansas province), Estill, Fayette, Henderson, Henry, Magoffin, Martin, Powell, Pulaski districts (Kentucky province), Washington district (Maryland province), Sanilac, St. Clair, Tuscola districts (Michigan province), Gentry, Holt, Linn, Livingston, Macon, St. Clair districts (Missouri province), Adams, Cass, Clay, Custer, Franklin, Fillmore, Furnas, Gage, Harlan, Jefferson, Lancaster, Nuckolls, Otoe, Saline, Thayer, Webster, York districts (Nebraska province), Broome, Delaware districts (New York province), Athens, Brown, Fayette, Perry, Ross districts (Ohio province), Caddo, Noble, Osage, Pawnee, Tillman districts (Oklahoma province), Crawford district (Pennsylvania province), Hawkins district (Tennessee province), Nolan, Taylor, Val Verde districts (Texas province), Lancaster, Lee, Loudoun, Scott districts (Virginia province), Berkeley district (West Virginia province), Manitowoc, Dane, Columbia districts (Wisconsin province), North Carolina, South Carolina provinces",,,
0ee73c0f5c8b1d73955802fda95f3c56,2004-0248-USA,USA,United States of America,Northern America,Americas,"Wayne, Oakland, Macomb, Livingston districts (Michigan province)",,,
40b351b66b49a3cf70ebec1230bd9805,2004-0249-USA,USA,United States of America,Northern America,Americas,"Geneva, Jefferson, Lauderdale, Limestone, Madison districts (Alabama province), Cross, Mississippi, Nevada districts (Arkansas province), Crawford, Jefferson, Logan, Perry, Washington districts (Illinois province), Clark, Crawford, Hamilton, Hancock, Hendricks, Jackson, Madison, Marion, Monroe, Morgan, Miami, Owen, Tippecanoe, Vanderburgh, Warrick, Washington districts (Indiana province), Buchanan, Lee, Iowa districts (Iowa province), Cloud, Harper, Marshall, Republic, Sumner districts (Kansas province), Henry, Hopkins, Jefferson, Knox, Muhlenberg, McCracken, Webster districts (Kentucky province), St. Clair district (Michigan province), Tippah district (Mississippi province), Buchanan, Clinton, DeKalb, Daviess, Harrison, Laclede, Platte, St. Louis districts (Missouri province), Holt, Lincoln districts (Nebraska province), Adams district (Ohio province), Blaine, Canadian, Creek, Custer, Kingfisher, Mayes, Oklahoma, Tulsa, Wagoner districts (Oklahoma province), Brown, Edmunds, Clay districts (South Dakota province), Bedford, Bradley, Lincoln, Franklin, Giles, Grundy, Hardin, Moore districts (Tennessee province), Cottle, Houston, Tarrant districts (Texas province), Boone, Braxton, Cabell, Jackson, Kanawha, Lewis, Logan, Mason, Morgan, Mingo, Putnam, Upshur, Wayne, Wood, Wyoming districts (West Virginia province), Louisiana province",,,
a9a0f7de834dc6bbb96baaf659973099,2004-0338-USA,USA,United States of America,Northern America,Americas,"Milam, Guadalupe, Bexar districts (Texas province), Eagle district (Colorado province), Mississippi province, Richland district (South Carolina province), Franklinton city (Washington district, Louisiana province), Bufford city (Gwinnett district, Georgia province)",,,
be8e5b623dced5150518491d05ede467,2004-0346-CAN,CAN,Canada,Northern America,Americas,"Ontario, Alberta, Quebec provinces",,,
d0fc23a7dec2490f6c03a681ee9ced6d,2004-0348-USA,USA,United States of America,Northern America,Americas,"Carson City district (Nevada province), Los Angeles district (California province)",,,
7a06dcd31f813e1485cd3fb65f3aa463,2004-0415-USA,USA,United States of America,Northern America,Americas,"Bay, Calhoun, Escambia, Franklin, Gadsden, Gulf, Holmes, Jackson, Jefferson, Leon, Liberty, Madison, Okaloosa, Santa Rosa, Taylor, Wakulla, Walton, Washington districts (Florida province), South Carolina, North Carolina provinces",,,
ad1cc8f74fdfa5c1a2c7032ec76df0d4,2004-0446-USA,USA,United States of America,Northern America,Americas,"Shasta Lake area (Shasta districts, California province)",,,
ca9441096a24d4ac0fd8412b80561856,2004-0448-USA,USA,United States of America,Northern America,Americas,"Richmond, Lynchburg, Chesterfield districts (Virginia province), South Carolina, North Carolina provinces",,,
575c675cf489d3c8a9febc223c62ce08,2004-0455-USA,USA,United States of America,Northern America,Americas,"Martin, Palm Beach districts (Florida province), North Carolina, South Carolina, Ohio provinces",,,
687d2017555d5d616383196e6e79ed91,2004-0462-USA,USA,United States of America,Northern America,Americas,"Alabama, Louisiana, Mississippi, Florida, Pennsylvania, Maryland, New Jersey, Ohio, North Carolina, West Virginia, Georgia, Tennessee provinces",,,
6dab3f46a54553c8c1ba065f296ca031,2004-0473-USA,USA,United States of America,Northern America,Americas,Florida province,,,
fe4bf0482434af2cef843b1582341536,2004-0502-USA,USA,United States of America,Northern America,Americas,Caroline district (Virginia province),,,
704c7ab940171c820a7da95efc2a55a2,2004-0572-USA,USA,United States of America,Northern America,Americas,"Manoa Valley area (Honolulu district, Hawaii province)",,,
611839669c874d3c42ab279196f2e377,2004-0675-USA,USA,United States of America,Northern America,Americas,"Pennsylvania, New Jersey provinces",,,
89f9a0a70c4a4f88e7a6f946431960b1,2004-0731-USA,USA,United States of America,Northern America,Americas,"Arkansas, Illinois, Iowa, Indiana, Missouri, Oklahoma provinces",,,
5521f47a7e0c99ca24c918ee30c98ec1,2004-0740-USA,USA,United States of America,Northern America,Americas,"Connecticut, Delaware, Maryland, Maine, New Hampshire, New Jersey, New York, Pennsylvania, Rhode Island, Vermont provinces",,,
8b83291806e7b6d05e706c39ff41f206,2005-0015-USA,USA,United States of America,Northern America,Americas,"La Conchita area (Ventura district, California province), Malibu area (Los Angeles district, California province), Sacramento district (California province), Arizona, Ohio provinces",,,"Venturea, Ohio rivers"
09211ccf51a2a1beed0e87f420d96839,2005-0029-USA,USA,United States of America,Northern America,Americas,"New York, Connecticut, Wisconsin, Ohio, Maryland, Massachusetts, Iowa provinces",,,
6e2f022a3648c38d6702f718d57e481d,2005-0103-USA,USA,United States of America,Northern America,Americas,Los Angeles district (California province),,,
0ee059bb2ef925aa8d44095ffe11c897,2005-0203-USA,USA,United States of America,Northern America,Americas,"New Jersey, Pennsylvania, New York, Maine provinces",,,"Delaware, Pequannock, Passaic, Pompton, Ramapo, Hackensack, Wanaque, Delaware, Susquehanna and tributaries, Hudson, Chenango, Tioughnioga, Neversink, Beaverkill, Esopus, Moodna, Rondout, Wallkill, Raritan, Passaic, Penobscot"
fc3f84450bdece7e465003f357665681,2005-0219-USA,USA,United States of America,Northern America,Americas,Rankin district (Mississippi province),,,
63267807c3c76d8004aea1696a53ea35,2005-0286-USA,USA,United States of America,Northern America,Americas,Idaho province,,,
1f45482df19c9faab2a9100d4b549b39,2005-0351-USA,USA,United States of America,Northern America,Americas,"Florida, Georgia provinces",,,
b3ebbf0a57ef772d11051040bc6cb9a4,2005-0383-CAN,CAN,Canada,Northern America,Americas,Québec province,,,
7ec368c7a3b9988000c181908afdf58f,2005-0460-CAN,CAN,Canada,Northern America,Americas,Ontario province,,,
6461b0edb618d205706664c9d18e48b8,2005-0467-USA,USA,United States of America,Northern America,Americas,"Mobile, Bayou La Batre, Dauphin Island, Coden areas (Mobile district, Alabama province), New Orleans city (Orleans district, Louisiana province), Slidell area (St. Tammany district, Louisiana province), St. Bernard district (Louisiana province), Biloxi, Gulfport cities (Harrison district, Mississippi province), Pascagoula city (Jackson district, Mississippi province), Waveland, Bay St. Louis cities (Hancock district, Mississippi province), Georgia, Florida provinces",,,
c916bf3359acd301f94a8aa2bb47ac93,2005-0530-USA,USA,United States of America,Northern America,Americas,Wisconsin province,,,
b040fef7fbbdce8f051d6e52ec474192,2005-0547-USA,USA,United States of America,Northern America,Americas,"Louisiana, Texas, Mississippi provinces",,,"Vermillion, Calcasieu, Mermentau, Amite, Sabine, Neches"
e37e7bb45ec25beceec5698bf76a012b,2005-0553-CAN,CAN,Canada,Northern America,Americas,"Montreal, Acton, Beauharnois-Salaberry, Brome-Missisquoi, La Haute-Yamaska, Marguerite-D'Youville, La Vallée-du-Richelieu, Pierre-De Saurel, Le Haut-Richelieu, Le Haut-Saint-Laurent, Les Jardins-de-Napierville, Les Maskoutains, Roussillon, Rouville, Vaudreuil-Soulanges, Longueuil, Coaticook, Le Granit, Le Haut-Saint-Francois, Les Sources, Le Val-Saint-François, Memphrémagog, Sherbrooke districts",,,
82d4e10b6a0d28668d70271f4316a10f,2005-0583-USA,USA,United States of America,Northern America,Americas,"Keene, Alstead, Stoddard, Unity, Hinsdale, Walpole areas (Cheshire district, New Hampshire), Brattleboro, Guilford areas (Windham district, Vermont province), Pittsfield area (Berkshire district, Massachusetts province), Greenfield area (Franklin district, Massachusetts province), Northbridge, Worcester, Southbridge areas (Worcester district, Massachusetts), Spring Lake area (Monmouth district, New Jersey province), Wayne, Little Falls, Pompton Lakes areas (Passaic district, New Jersey province), Oakland, Lodi, Westwood areas (Bergen district, New Jersey province), Bound Brook area (Somerset district, New Jersey province), Tolland, Windham, Hartford districts (Connecticut province)",,,"Cold River, North Branch River, Little Sugar River, Housatonic, Merrimack, Blackstone, Ramapo, Passaic, Saddle, Pompton, Connecticut river"
d46a4b0183a12c7d6f349beb066a5c66,2005-0585-USA,USA,United States of America,Northern America,Americas,"Florida Keys, Naples areas (Collier district, Florida province)",,,
3af865903825e0202a3d8dc22700f4f2,2005-0591-CAN,CAN,Canada,Northern America,Americas,"Stephenville & Kippens towns (Division No. 4 district, Newfoundland and Labrador province), Reidville town (Division No. 5 district, Newfoundland and Labrador province)",,,Blanche Brook
efe63079da3a1c2de89e298a4f6d48c5,2005-0682-USA,USA,United States of America,Northern America,Americas,"Maine, New Hampshire, Vermont, Massachusetts, Rhode Island, Connecticut, New York, New Jersey, Pennsylvania, Idaho, Michigan, Minnesota, Montana, North Dakota, Oregon, South Dakota, Washington, Wisconsin, Wyoming provinces",,,
acad1824d5001e388997e5ed6145ff43,2005-0687-USA,USA,United States of America,Northern America,Americas,"Arizona, Nevada, Oklahoma, Utah, Missouri, Kentucky, Ohio, Mississippi provinces",,,
2a9524874555d4c4439add6fe6dc2aaa,2005-0716-USA,USA,United States of America,Northern America,Americas,"Reno area (Washoe district, Nevada province), Truckee area (Nevada district, California province), Napa, Sonoma, Mendocino, Marin, Solano, Los Angeles districts (California), Carson City district (Nevada province)",,,"Sacramento, San JOaquin, Russian, Napa, Navarro, Klamath, Eel, Pit, Susan, Truckee"
21a11199fb0b908a3b228c1f8c1f6d95,2005-0724-USA,USA,United States of America,Northern America,Americas,"Texas, Oklahoma provinces",,,
76448680b8eea9f33e4e851e4e791714,2005-0728-CAN,CAN,Canada,Northern America,Americas,"Black Diamond, High River, Otokoks, Turner Valley towns (Division No. 6 district, Alberta province), Pincher Creek city (Division No. 3 district, Alberta province), Lethbridge city (Division No. 2 district, Alberta province), Siksika Reserve, Drumheller cities (Division No. 5 district, Alberta province), Red Deer city (Division No. 8 district, Alberta province)",,,"Elbow, High, Bow, Highwood, Sheep, Oldman, Willow Creek, Red Deer, Fish Creek, Priddis Creek"
413d0bc466a4675af7991a2c59e0c87e,2006-0128-USA,USA,United States of America,Northern America,Americas,"Missouri, Arkansas, Illinois, Indiana, Kansas, Oklahoma provinces",,,
17b5e63af206976a6f8d12434273b664,2006-0161-USA,USA,United States of America,Northern America,Americas,"Tennessee, Illinois, Arkansas, Indiana, Oklahoma, Missouri, Kentucky, Iowa provinces",,,
57fdd16e93b00e1f2693a9df159c01dd,2006-0171-USA,USA,United States of America,Northern America,Americas,"Sumner, Warren districts (Tennessee province), Alabama, Georgia, Indiana, Kansas, Kentucky, Ohio provinces",,,
3d3f99f24438f294efdb2aa9f5b502a5,2006-0180-USA,USA,United States of America,Northern America,Americas,"Amador, Calaveras, Fresno, Merced, San Joaquin, San Mateo, Stanislau districts (California province)",37.69,-99.99,"Merced, Consumes, San Joaquin, Sacramento, Navarro"
05e1ce2f247bb6b3a0322522b868f944,2006-0182-USA,USA,United States of America,Northern America,Americas,Kauai district (Hawaii province),22.15,-99.99,Kaloko
4c82e9cb36654ebf3f1c5bc7ee7068f7,2006-0203-CAN,CAN,Canada,Northern America,Americas,"Baie Verte, Middle Arm, Smith's Harbour, Burlington cities (Division No.8 district, Newfoundland and Labrador province)",49.72,-56.05,
21794791953895ae39d0279cc2b097a7,2006-0206-CAN,CAN,Canada,Northern America,Americas,"Red Earth First Nation, Porcupine Plain cities (Division No.14 district, Saskatchewan province), Fishing Lake (Division No.10 district, Saskatchewan province)",53.54,-99.99,"Carrot, Red Deer, Shand Creek, Saskatchewan"
0a7403ac0466b0c03636ef62949cca1f,2006-0224-CAN,CAN,Canada,Northern America,Americas,"Fort Albany city (Cochrane district, Ontario province)",52.53,-82.09,
79cd23877f3a08f5b230696886f225c2,2006-0257-USA,USA,United States of America,Northern America,Americas,"Tarrant, Bexar districts (Texas province)",,,
d1f497eca13063f8f5d8aa9e19d47b27,2006-0260-USA,USA,United States of America,Northern America,Americas,"New Hampshire, Maine, Massachusetts provinces",43.16,-70.79,"Merrimack, Salmon Falls, Warner, Baker, Connecticut, Contoocook, Pemigewasset, Piscataqua, Saco, Smith, Souhegan, Spicket, Sugar, Turkey, Newfound, Powow, Lamprey, Aberjona, Assabet, Blackstone, Charles, Concord, Ipswich, Merrimack, Nashua, Neponset, North Nashua, Shawsheen, Spicket, Squannacook, Sudbury, Mousam, Presumpscot, Swift"
5521a187f4667a76bc0ddeb5c6fe6b2e,2006-0261-CAN,CAN,Canada,Northern America,Americas,"Aklavik city (Region 1 district, Northwest Territories province)",67.93,-99.99,Mackenzie
868a030a4530425dc66b8caba4aef6e4,2006-0269-CAN,CAN,Canada,Northern America,Americas,"Grand Forks city (Kootenay Boundary district, British Columbia province), Nelson city (Central Kootenay district, British Columbia province), Penticton city (Okanagan-Similkameen district, British Columbia province)",50.13,-99.99,"Kettle, Ellis Creek, Slocan, Granby"
02c278dd833f6bec06a2d46aec6cbc11,2006-0341-USA,USA,United States of America,Northern America,Americas,"Maryland, Pennsylvania, New York, Delaware, Virginia, New Jersey provinces",40.41,-75.78,
01a30d550084467082de1f6e61ce92d3,2006-0344-USA,USA,United States of America,Northern America,Americas,"Huron, Erie, Crawford, Lucas, Sandusky districts (Ohio province)",41.41,-86.91,"Huron, Cuyahoga"
083f22be571aaad4489547fc6a01cb9d,2006-0374-USA,USA,United States of America,Northern America,Americas,California province,,,
bb63d1d9d9cca59a959a626a09abcb0f,2006-0387-USA,USA,United States of America,Northern America,Americas,"Modesto city (Stanislaus district, California province)",,,
70914b47802b6f86f343ae15243e55f3,2006-0413-USA,USA,United States of America,Northern America,Americas,El Paso district (Texas province),31.76,-106.39,Rio Grande
036cdb5f1e4d96c8684adcda3a2d302c,2006-0418-USA,USA,United States of America,Northern America,Americas,Lake district (Ohio province),41.52,-81.09,"Grand, Chagrin rivers"
b0345d5156ee806c94a6dcd76da145e1,2006-0427-USA,USA,United States of America,Northern America,Americas,New York province,,,
6a1c81a4ca1ef46bb7e10e57b6ffaf38,2006-0461-USA,USA,United States of America,Northern America,Americas,Alaska province,62.45,-99.99,"Little Sustina, Kahiltna, Sheridan, Eyak, Lake Creek, Campbell Creek"
feea5fd2b516c536eefbeecffde62c4b,2006-0466-USA,USA,United States of America,Northern America,Americas,"South Carolina, North Carolina, Virginia provinces",34.74,-77.87,
e891139c469b2338b302f8e76ff8da8d,2006-0546-USA,USA,United States of America,Northern America,Americas,"Mercer, Jessamine, Franklin, Calloway, Montgomery districts (Kentucky province), Sharp, Clay, Fulton, Randolph, Lawrence districts (Arkansas province), Obion district (Tennessee province), Missouri, Indiana, Illinois provinces",37.21,-87.62,"Harris Fork Creek, Green, Licking, Rolling Fork, Spring, Eleven Point"
a0d7554fdd4f65bdd4a2466637969d6d,2006-0566-USA,USA,United States of America,Northern America,Americas,"Prince William Sound area (Valdez-Cordova district, Alaska province)",60.88,-145.99,"Copper, Lowe"
e7ec26152a6151b6be187f3fbf1f81bd,2006-0576-USA,USA,United States of America,Northern America,Americas,"Riverside, Palm Springs cities (Riverside district, California province), San Diego district (California province)",,,
a9acd0eb70e19174c157883f74a1a0d0,2006-0595-USA,USA,United States of America,Northern America,Americas,"North Carolina, Alabama, Arizona, Arkansas, Louisiana, Maryland, Mississippi, Pennsylvania, South Dakota, Texas provinces",,,
6a399b59daf6aca03d3daecac225189d,2006-0598-USA,USA,United States of America,Northern America,Americas,"Washington, Oregon provinces",47.86,-122.15,"Cowlitz, Skokomish, Skykomish, Tolt, Puyallup, Skagit, Snohomish, Pilchuck, Carbon, Snoqualmie, South Fork of the Stillaguamish, Nisqually, White, Wenatchee rivers (Washington); White, Columbia, Nehalem, Wilson rivers (Oregon)"
de0487203251c7964256a290ffcf8d5d,2006-0642-USA,USA,United States of America,Northern America,Americas,"Erie, Niagara, Genesee, Orleans districts (New York province)",,,
56146f62b731ac3fa88395f5fd6f615c,2006-0662-USA,USA,United States of America,Northern America,Americas,Ventura district (California province),,,
be52e634ed94b52fc40811a475e64888,2006-0704-USA,USA,United States of America,Northern America,Americas,Hawai province,19.878,-155.935,
d9e9e5afcabf0546e03b541a7bd21dae,2006-0706-USA,USA,United States of America,Northern America,Americas,"Daytona beach (Volusia district, Florida province)",,,
b4f5413a5d211954228f5fb155343aa0,2006-0707-USA,USA,United States of America,Northern America,Americas,Colorado provinces,,,
d4b3566ce0750312499c53c14493c67c,2006-0718-USA,USA,United States of America,Northern America,Americas,Kansas province,,,
d09d261bf968f0b273f2344564d630a9,2006-0743-USA,USA,United States of America,Northern America,Americas,"Illinois, Indiana, Kentucky, Missouri, New York, Ohio, Pennsylvania, Tennessee provinces",,,
ecb0a4ef2b51ae8aa77c9004741cd4f3,2006-0744-USA,USA,United States of America,Northern America,Americas,"Oregon, Washington provinces",,,
cf00f0fadea38a20eb620ec10f753a23,2006-0759-USA,USA,United States of America,Northern America,Americas,Texas,,,
4df92ea4b06628c7da30cd1e83a65e12,2007-0026-USA,USA,United States of America,Northern America,Americas,"California, Texas, Georgia, South Carolina, Oklahoma, Missouri, Iowa, Michigan, New York, Maine, Kansas, Illinois provinces",,,
b636e8d9ef7d16e1349a7aa638bac155,2007-0041-USA,USA,United States of America,Northern America,Americas,"Indiana, Arkansas, Texas, Ohio, Missouri provinces",34.88,-90.07,"Wabash, White, East Fork of White River, Lower Ohio, Patoka, Black, St Francis, White, Cache, Ouachita, Sabine, Navasota, Neches, Sulpher, lower Ohio"
85b355f9102d3005cf7fdd36fad724e9,2007-0048-USA,USA,United States of America,Northern America,Americas,"Volusia, Lake, Sumter, Seminole districts (Florida province)",,,
f94f3b52cbd5af2fde490f86e6993a51,2007-0066-CAN,CAN,Canada,Northern America,Americas,"Ontario, Quebec provinces",,,
d1e8c9f732eaddf5fb7469648c7ff51d,2007-0066-USA,USA,United States of America,Northern America,Americas,"New York, Vermont, New Jersey, Ohio, Pennsylvania provinces",,,
baeb5b99726dcf963f52b79e6d4848a5,2007-0083-USA,USA,United States of America,Northern America,Americas,"Alabama, Missouri, Georgia, Minnesota provinces",,,
d3ba5c2881c151d919de91b31db083ed,2007-0156-USA,USA,United States of America,Northern America,Americas,Texas province,,,
f4e37e86b9bbed88026217c7b1374020,2007-0165-CAN,CAN,Canada,Northern America,Americas,"Terrace city (Kitimat-Stikine district, British-Columbia province), Smithers city, Telkwa village (Bulkley-Nechako district, British-Columbia province), Prince George city, McBride village (Fraser-Fort George district, British Columbia province)",54.18,-125.03,"Skeena, Bulkley, Nass, Telkwa, Fraser"
68b5f8aee1b929a1c215afdbddf14fe9,2007-0173-USA,USA,United States of America,Northern America,Americas,"Texas, Kansas, Oklahoma provinces",30.24,-98.66,"Guadalupe, Pedernales, Medina, Little Arkansas, Mulberry Creek, Honey Creek, Washita"
1b380ca2b8b0e7b010f846f2d3528b5d,2007-0244-USA,USA,United States of America,Northern America,Americas,"Wichita Falls area (Wichita district, Texas province), Georgetown areas (Williamson district, Texas province), Burnet, Marble Falls, Granite Shoals areas (Burnet district, Texas province), Granbury area (Hood district, Texas province), Lampasas, Parker, Eastland districts (Texas province), Miami, Commerce areas (Ottawa district, Oklahoma province), Shawnee, Tecumseh, Maud areas (Pottawatomie district, Oklahoma province), Oklahoma city (Oklahoma district, Oklahoma province), Waurika area (Jefferson district, Oklahoma province), Bartlesville, Dewey areas (Washington district, Oklahoma province), Love, Lincoln districts (Oklahoma province), Coffeyville area (Montgomery district, Kansas province), Osawatomie area (Miami district, Kansas province), Allen, Labette, Neosho, Wilson, Woodson districts (Kansas province), Rockville, Papinville areas (Bates district, Missouri province), Vernon district (Missouri province)",32.84,-97.17,"San Gabriel, Brazos, Wichita, Trinity, Guadalupe, Sabine, Nueces, Colorado, Caney, Neosho, Red River, Verdigris, Marais des Cygnes, Pottawatomie, Marmaton, Osage and Marais des Cygnes"
b0345d5156ee806c94a6dcd76da145e1,2007-0251-USA,USA,United States of America,Northern America,Americas,New York province,42.23,-74.95,"Spring Brook, Veaverkill Creek"
d24d8561a6cc974af9f3ed2505e69993,2007-0254-USA,USA,United States of America,Northern America,Americas,"North Texas, Oklahoma provinces",33.45,-97.3,Pecan Creek
2bb4f463331b77648a9f7a4204751d72,2007-0351-USA,USA,United States of America,Northern America,Americas,"Alpine, Amador, Calaveras, El Dorado, Mono, Placer, Tuolumne districts (California province)",,,
9765de2deef41970b03d073855db0724,2007-0359-USA,USA,United States of America,Northern America,Americas,"Texas, Oklahoma, Missouri provinces",,,
d8cf4223fb2b2554266cb5ecc54952e2,2007-0383-USA,USA,United States of America,Northern America,Americas,"Illinois, Colorado, Michigan, Minnesota, Wisconsin, Ohio, Oklahoma, North Dakota provinces",36.86,-94.64,
54468aa7e43591652bd3c19ed855676a,2007-0519-USA,USA,United States of America,Northern America,Americas,"Los Angeles, Orange, Riverside, San Bernardino, San Diego, Santa Barbara, Ventura districts (California province)",,,
eba5f1b2d79ba0166d65e226293a9387,2007-0579-USA,USA,United States of America,Northern America,Americas,"Malibu area (Los Angeles district, California province)",,,
6a399b59daf6aca03d3daecac225189d,2007-0581-USA,USA,United States of America,Northern America,Americas,"Washington, Oregon provinces",47.09,-122.91,
7cdaeceabac736272ba31b062980fc68,2007-0621-CAN,CAN,Canada,Northern America,Americas,"Toronto, Ottawa districts (Ontario province), Montreal district (Quebec province)",,,
7e24e06b2ed434e58a6d7a10bde9af9f,2007-0621-USA,USA,United States of America,Northern America,Americas,"Illinois, Iowa, Missouri, Minnesota, Kansas, Nebraska, Colorado, Michigan, Wisconsin, Wyoming provinces",,,
7a1c76cc63416a024ad79ce87e8ce0ca,2007-0641-USA,USA,United States of America,Northern America,Americas,"Oklahoma, Missouri, Iowa, Illinois, Kansas, Nebraska, Connecticut, Michigan, New York, New Jersey, Pennsylvania, Rhode Island provinces",,,
3b30b784c03aec0e8887aea57022fad8,2007-0662-USA,USA,United States of America,Northern America,Americas,"Colorado, Iowa, Kansas, Minnesota, Missouri, Nebraska, Oklahoma, South Dakota provinces",,,
36f621b889924e576b188f9444941368,2007-0663-USA,USA,United States of America,Northern America,Americas,"Texas, Delaware, Connecticut, Georgia, Louisiana, Massachusetts, Maine, Maryland, Mississippi, New Hampshire, New Jersey, New York, North Carolina, Pennsylvania, Rhode Island, South Carolina, Vermont, Virginia provinces",,,
b8290817d27329dd8dcfed4a7cb79f9f,2007-0689-USA,USA,United States of America,Northern America,Americas,"Arkansas, Iowa, Texas",,,
3376e558a5ee11cd520da9b6f82e2aaf,2007-0690-USA,USA,United States of America,Northern America,Americas,"Iowa, Kansas, Minnesota, Texas, Wisconsin provinces",,,
4e5191d3a6f92519d72a1849bfc1bacb,2007-9548-USA,USA,United States of America,Northern America,Americas,"California, Georgia, Maryland provinces",,,
0db346881889745a86421ab417c5d3e4,2008-0010-USA,USA,United States of America,Northern America,Americas,"California, Nevada, Oregon provinces",39.63,-119.2,irrigation canal from Truckee river
24c624409eb227701e268f551c5e43e6,2008-0039-USA,USA,United States of America,Northern America,Americas,"Tennessee, Arkansas, Kentucky, Mississippi, Alabama, Indiana, Texas, Illinois, Ohio, Missouri provinces",,,
e436b2584da0d74882d6d2112dc071db,2008-0099-USA,USA,United States of America,Northern America,Americas,"Wells city (Elko district, Nevada province)",41.1444,-114.8721,
69db845d13f31820e859d62de218c4a3,2008-0115-USA,USA,United States of America,Northern America,Americas,"Fulton, DeKalb, Cobb, Clayton, Gwinnett districts (Georgia province)",,,
cd09ad30433c4e0231deeeb467a09e97,2008-0131-USA,USA,United States of America,Northern America,Americas,"Missouri, Mississippi, Arkansas, Indiana, Illinois, Ohio, Kentucky, Oklahoma, Iowa, Wisconsin, Texas provinces",36.23,-89.15,Ohio and Mississippi rivers and tributaries
7fde4ecb8321360e5362a7d1228e0779,2008-0170-CAN,CAN,Canada,Northern America,Americas,"Belleville city, Foxboro community, Tweed village (Hastings district, Ontario province), Campbellford, Trent Hills municipality (Northumberland district, Ontario province), Ottawa city (Ottawa province, Ontario province)",44.46,-77.47,"Moira, Trent, Crowe, Rideau"
ccfba0890a0c24b9ada73b8892c8b634,2008-0194-USA,USA,United States of America,Northern America,Americas,"Kansas, Maryland, Missouri, North Carolina, Virginia, Texas, Oklahoma, Georgia, Arkansas provinces",,,
97a3124c09661d547cf5610d837d15de,2008-0210-USA,USA,United States of America,Northern America,Americas,"Dunkerton city (Black Hawk district, Iowa province), Parkesburg, New Hartford cities (Butler district, Iowa province), Cedar Rapids city (Linn district, Iowa province), Minnesota, Indiana, Illinois, Kansas, Michigan, Montana, Missouri, Nebraska, Wisconsin provinces",39.82,-92.33,
083f22be571aaad4489547fc6a01cb9d,2008-0253-USA,USA,United States of America,Northern America,Americas,California province,,,
29902366769061e78fb607d0440ade36,2008-0264-CAN,CAN,Canada,Northern America,Americas,"James Bay area (Cochrane, Kenora districts, North Ontario province)",52.15,-81.96,Albany river
a59e2dfcba82046c7f65983b6074e43f,2008-0304-USA,USA,United States of America,Northern America,Americas,"Panama city beach (Bay district, Florida province), Aransas, Bexar, Brooks, Calhoun, Cameron, Hidalgo, Jim Wells, Kenedy, Kleberg, Nueces, Refugio, San Patricio, Starr, Victoria, Willacy districts (Texas province)",,,
8527402ca9a4d1f83181d71f0dce3f53,2008-0338-USA,USA,United States of America,Northern America,Americas,"Florida, Georgia, Alabama, Mississippi provinces",,,
d6853d3d1ae2bd8f0547be6f2356eee7,2008-0352-USA,USA,United States of America,Northern America,Americas,"Louisiana, Mississippi, Texas, Alabama provinces",,,
03c504ea890fb81329ff8b161d76ec11,2008-0378-USA,USA,United States of America,Northern America,Americas,"Florida, North Carolina, Maryland provinces",,,
9f606dd41fcca8e5bc75dace5369fb32,2008-0384-USA,USA,United States of America,Northern America,Americas,"Galveston, Brazoria, Harris, Chambers, Jefferson districts (Texas province), Louisiana, Tennessee, Arkansas, Ohio, Indiana, Illinois, Missouri, Kentucky, Pennsylvania, Michigan provinces",35.05,-90.45,
b876087a5d892dfe47e20129da5d31c9,2008-0524-USA,USA,United States of America,Northern America,Americas,"Los Angeles, Orange, Riverside, Santa Barbara districts (California province)",,,
857b3fd7a7b2e3eeb0d85756514c18c8,2008-0563-USA,USA,United States of America,Northern America,Americas,"Maine, Massachusetts, New Hampshire, New York, Vermont provinces",,,
aa820ab04dc87526ab6a546350055440,2008-0599-USA,USA,United States of America,Northern America,Americas,"Arkansas, Illinois, Indiana, Kentucky, Missouri, New York, Ohio, Tennessee, Alabama, Mississippi provinces",,,
4868f3fe66c9c5aa550f2ff72fbcc464,2008-0600-USA,USA,United States of America,Northern America,Americas,"Arkansas, California, Colorado, Illinois, Indiana, Kansas, Michigan, Missouri, New York, Ohio, Oklahoma, Oregon, Washington, Wisconsin provinces",,,
8f628f5958f0c921c74b38a07b448b72,2008-0601-USA,USA,United States of America,Northern America,Americas,"Arkansas, Oklahoma, Texas provinces",,,
dace50cf686e65ac2ee1ce7519f1bc35,2008-0627-USA,USA,United States of America,Northern America,Americas,"Illinois, Iowa, Kansas, Michigan, Minnesota, Missouri, Nebraska, Wisconsin provinces",,,"Mississipi, Ohio rivers"
5893f2ebc2ba5f5fa3051fcc0ac27fe7,2008-0638-USA,USA,United States of America,Northern America,Americas,"Orting town (Pierce district, Washington province), Chehalus town (Lewis district, Washington), Oregon province",42.84,-123.77,"Puyallup, Newaukaum"
452b2240445f7d869e9ed099a73b3eae,2008-0645-USA,USA,United States of America,Northern America,Americas,Suffolk district (Virginia province),,,
e4d409f73c6117395372fba87c199874,2008-0654-USA,USA,United States of America,Northern America,Americas,"Massachusetts, New York, Maine, New Hampshire, Vermont provinces",,,
1c9f3c5c2c9061e71a4ff03256e448b3,2009-0056-USA,USA,United States of America,Northern America,Americas,"Texas, Pennsylvania, Oklahoma, Kentucky, Missouri, Arkansas, District of Columbia provinces",,,
9ed423ca9540029ff4578cac6e9b6d4d,2009-0106-USA,USA,United States of America,Northern America,Americas,"North Dakota, Minnesota provinces",48.25,-97.03,"Red river, Fargo, James river"
6dd8cd40b7f5a1cff89901e6e2f3da7c,2009-0140-USA,USA,United States of America,Northern America,Americas,"Texas, Oklahoma, Arkansas, Alabama, Georgia, Kentucky, Louisiana, Missouri, South Carolina, Tennessee provinces",,,
37c36f5174b8a2ff8ebba7038c05da5c,2009-0178-USA,USA,United States of America,Northern America,Americas,Santa Barbara district (California province),,,
d84637acf78d95bda1810eb134a0fe32,2009-0184-USA,USA,United States of America,Northern America,Americas,"Virginia, Kentucky provinces",37.66,-81.28,
9ad1888bd6e13229abe90e7af6a06ac5,2009-0189-CAN,CAN,Canada,Northern America,Americas,New Brunswick / Nouveau-Brunswick province,47.16,-67.63,
6dab3f46a54553c8c1ba065f296ca031,2009-0190-USA,USA,United States of America,Northern America,Americas,Florida province,30.84,-85.23,
c394009d8c2434c82be6a483e21a6ea0,2009-0244-USA,USA,United States of America,Northern America,Americas,"Dallas, Tarrant, Harris, Galveston, Swisher districts (Texas province)",,,
1bb79343bb7b2f9ded18c076d0404218,2009-0287-USA,USA,United States of America,Northern America,Americas,"Ohio, Oklahoma, Kentucky, Texas, Tennessee, Pennsylvania, West Virginia, Maryland, Washington provinces",,,
97bbfafd264aa0103b26f41893119269,2009-0342-CAN,CAN,Canada,Northern America,Americas,"Nova Scotia, Newfoundland and Labrador provinces",,,
c846524cce641d3e6fc0f0d153ef6de5,2009-0342-USA,USA,United States of America,Northern America,Americas,Maine province,,,
7a48a5ca51d39a5176b40fbb7d494bee,2009-0349-USA,USA,United States of America,Northern America,Americas,"Los Angeles, Monterey districts (California province)",,,
3b16ea6e2e28e3ce639a9515f6a71d9a,2009-0405-USA,USA,United States of America,Northern America,Americas,"Douglas, Floyd, Carroll, Fulton, DeKalb, Cobb, Clayton, Gwinnett districts (Georgia province), Alabama, North Carolina,Tennessee provinces",,,
3b5cfa4601a70e5e64570fca45d49fb8,2009-0477-USA,USA,United States of America,Northern America,Americas,"Kent, Sussex districts (Delaware province), Atlantic, Burlington, Cape May, Cumberland, Monmouth, Ocean districts (New Jersey province), Virginia, New York, North Carolina, Pennsylvannia provinces",,,
c47f0b03e0050cadb22b707d81f7c205,2009-0599-USA,USA,United States of America,Northern America,Americas,"Alabama, North Carolina, South Dakota, Pennsylvania, Texas, Oklahoma provinces",,,
d72d0c2a2cf1082b5e24ee3847073e61,2009-0601-USA,USA,United States of America,Northern America,Americas,"Texas, Nebraska, Oklahoma, Kansas, North Carolina, Alabama, Missouri, Arkansas, Pennsylvania, Tennessee, Mississippi, South Carolina, Kentucky provinces",,,
ef6a2ca4c40c99092e2b634b0669d055,2009-0603-USA,USA,United States of America,Northern America,Americas,"Denver, Wheat Ridge, Lakewood, Arvada areas (Denver district, Colorado province)",,,
ea5195fe4ba3a4aa9f843ef23110d949,2009-0604-USA,USA,United States of America,Northern America,Americas,"Illinois, Missouri provinces",,,
1f831374ca88edb3b759cf3760b14bf6,2009-0619-CAN,CAN,Canada,Northern America,Americas,New Brunswick province,,,
dd081ca770d391f95f88a2859bcad86a,2009-0644-USA,USA,United States of America,Northern America,Americas,"Texas, Missouri, Louisiana provinces",,,
9ec780ee99007812bcaa61a4e4f5aaf7,2010-0027-USA,USA,United States of America,Northern America,Americas,"Ferndale, Eureka cities (Humboldt district, California province)",40.652,-124.6925,
f2a0bf2fdab7e42c0b88cac57aaed3ee,2010-0045-USA,USA,United States of America,Northern America,Americas,"New Jersey, Pennsylvania, Maryland, North Carolina, Delaware, District of Columbia, Virginia provinces",,,
416ddf240b6ae197ba65576f715073fb,2010-0089-USA,USA,United States of America,Northern America,Americas,"New York, District of Columbia, New Jersey, Pennsylvania, New Hampshire, Massachusetts, Maine, Connecticut, Rhode Island, Vermont provinces",,,
dd3ff8d2fca34012c1b1e5a051c5918e,2010-0162-USA,USA,United States of America,Northern America,Americas,Rhode Island province,39.48,-74.87,
59890c860f3b94164a97f38b168ade83,2010-0163-USA,USA,United States of America,Northern America,Americas,"Yazoo district (Mississippi province), Alabama, Louisiana, Arkansas, Georgia, Tennessee provinces",,,
02302835bcff622c0d5135f59f42160a,2010-0187-USA,USA,United States of America,Northern America,Americas,"Alabama, Arkansas, Mississippi, Kentucky, Tennessee provinces",36.07,-87.28,
35c1366a25368508cfee14fb2697f767,2010-0196-USA,USA,United States of America,Northern America,Americas,Oklahoma province,,,
5f104a87734a60cfbcbbde1305b55951,2010-0225-USA,USA,United States of America,Northern America,Americas,"Arkansas, Oklahoma provinces",34.58,-95.1,
1aadcff93b7ca2aacb5fc881e77a6984,2010-0468-USA,USA,United States of America,Northern America,Americas,"North Carolina, Virginia, Maryland, Massachusetts, Rhode Island provinces",,,
d3ba5c2881c151d919de91b31db083ed,2010-0522-USA,USA,United States of America,Northern America,Americas,Texas province,28.89,-97.06,
653df0e8062b5d3ba597566e3344ad33,2010-0612-USA,USA,United States of America,Northern America,Americas,"Connecticut, Massachusetts, New Hampshire, New Jersey, New York, Pennsylvania, Rhode Island provinces",,,
2022bae6e46068a3b896018fea456123,2010-0651-USA,USA,United States of America,Northern America,Americas,"Kern, Orange, Riverside, San Bernardino, San Luis Obispo, Tulare districts (California province), Utah, Nevada, Arizona provinces",38.8497,-120.73,
a9ce80a026e8712c69b704b67943eece,2010-0655-CAN,CAN,Canada,Northern America,Americas,"New Brunswick, Nova Scotia, Newfoundland and Labrador provinces",,,
02169e53670050829f8d206b3b9158d5,2010-0655-USA,USA,United States of America,Northern America,Americas,"Boston city (Suffolk district, Massachusetts province), Philadelphia district (Pennsylvania province), Fulton, DeKalb, Cobb, Clayton, Gwinnett districts (Georgia province), New York, North Carolina, Delaware, Maryland, Rhode Island, Virginia provinces",,,
cc67ef58c756336976ed79e35ec061f9,2010-0663-USA,USA,United States of America,Northern America,Americas,"Arkansas, Missouri, Illinois provinces",,,
58ab4ad678770b2770cfb8b928625b86,2010-0689-USA,USA,United States of America,Northern America,Americas,"Illinois, Indiana, Iowa, Kansas, Michigan, Minnesota, Missouri, Montana, Nebraska provinces",,,
2ce92507919038ee68577ca7a6a859ac,2010-0690-USA,USA,United States of America,Northern America,Americas,"Colorado, Georgia, Illinois, Kansas, North Carolina, New Mexico, Oklahoma, South Carolina provinces",,,
92566edef915db64a751fb531694b0f3,2011-0029-USA,USA,United States of America,Northern America,Americas,"Oklahoma, Texas, Missouri, Wisconsin, Minnesota, Colorado, Wyoming, Alabama, Arkansas, Delaware, Florida, Georgia, Kentucky, Louisiana, Maryland, Mississippi, North Carolina, South Carolina, Tennessee, Virginia, West Virginia, New York, New Jersey, Pennsylvania provinces",,,
126e6e64dd7dae1cb15de8bbbadf5067,2011-0131-CAN,CAN,Canada,Northern America,Americas,"Manitoba, Saskatchewan, Quebec, Alberta provinces",,,"Rouge, Roseau rivers"
6015836b0ce5ecd03a257330365edff6,2011-0134-USA,USA,United States of America,Northern America,Americas,"Mississippi, Alabama, Oklahoma, Texas, North Carolina, Kansas provinces",,,
d3ba5c2881c151d919de91b31db083ed,2011-0140-USA,USA,United States of America,Northern America,Americas,Texas province,,,
2569bbd54ef5d05f79b524ce4173be2f,2011-0145-USA,USA,United States of America,Northern America,Americas,"Alabama, Arkansas, Kentucky, Mississippi, Missouri, Tennessee, Oklahoma provinces",,,
d5766e608fdc35ca9a965f25efa48e02,2011-0166-USA,USA,United States of America,Northern America,Americas,"Illinois, Missouri, Kentucky, Tennessee, Mississppi provinces",34.1,-90.83,
3defcabecbff3fb3508236a6e9654584,2011-0172-USA,USA,United States of America,Northern America,Americas,"Jasper, Newton districts (Missouri province)",,,
435c5cef079b23a0e1abc41c64c7a2a8,2011-0189-USA,USA,United States of America,Northern America,Americas,"Missouri, Kansas, Texas provinces",,,
88c15dc5ed3bb5362259e5c771a65fad,2011-0195-USA,USA,United States of America,Northern America,Americas,"Illinois, Massachusetts, Michigan, Minnesota, North Dakota provinces",,,
856c4f9d81240602184ee44cff1af24c,2011-0264-USA,USA,United States of America,Northern America,Americas,"New York, Washington, Texas, Ohio, Maine, Iowa, Illinois, Minnesota, Nebraska, Wisconsin, South Dakota provinces",,,
17d2054d5634ae3878f30a3a04a06590,2011-0323-CAN,CAN,Canada,Northern America,Americas,"Goderich town (Huron district, Ontario province)",,,
5a2d0b9cd4d49e11b31e432666a35248,2011-0328-CAN,CAN,Canada,Northern America,Americas,"New Brunswick,Nova Scotia, Prince Edward Island provinces",,,
633ce85f183f0847276b7f454d0e47e9,2011-0328-USA,USA,United States of America,Northern America,Americas,"New York, New Jersey, Pennsylvania, North Carolina, Virginia, Maryland, District of Columbia, Connecticut, Florida provinces",40.186,-70.06,
7b88c05c7a88d1c8674c7c242d0f6252,2011-0349-USA,USA,United States of America,Northern America,Americas,Bastrop district (Texas province),,,
7ec957bd3f7dd020b86804c32174b202,2011-0425-USA,USA,United States of America,Northern America,Americas,"Charlotte town (Mecklenburg district, North Carolina province)",35.806,-79.37,
c37a65035cdbb9d038e0b01f36621c7f,2011-0444-USA,USA,United States of America,Northern America,Americas,"New York, New Jersey, Connecticut, Massachusetts provinces",,,
28ae2f7b448e7522440f32af33e2d358,2011-0456-USA,USA,United States of America,Northern America,Americas,"Louisiana, Mississippi, Alabama, Texas, New York, Pennsylvania, District of Columbia, Georgia, Maryland, Tennessee, Virginia provinces",,,
0c8367c9a30b652929c5472540d2d6d6,2011-0527-USA,USA,United States of America,Northern America,Americas,"Colorado, New Mexico provinces",,,
69c0163a001c98d1fa5320527b5ae75e,2011-0607-USA,USA,United States of America,Northern America,Americas,"Illinois, Indiana, Iowa, Kansas, Michigan, Minnesota, Missouri, Nebraska, North Dakota, Ohio, South Dakota, Wisconsin, Alabama, Arkansas, Delaware, Florida, Georgia, Kentucky, Louisiana, Maryland, Mississippi, North Carolina, South Carolina, Tennessee, Virginia, West Virginia, Maine, New Hampshire, Vermont, Massachusetts, Rhode Island, Connecticut, New York, New Jersey, Pennsylvania provinces",,,
b8e361655dea7e9201b1a46bdbb1cec1,2011-0608-USA,USA,United States of America,Northern America,Americas,"Colorado, Kansas, Montana, Nebraska, New Mexico, North Dakota, Oklahoma, South Dakota, Texas, Wyoming, Illinois, Indiana, Iowa, Michigan, Minnesota, Missouri, Nebraska, North Dakota, Ohio, South Dakota, Wisconsin, Maine, New Hampshire, Vermont, Massachusetts, Rhode Island, Connecticut, New York, New Jersey, Pennsylvania, Tennessee provinces",,,
4c12005c23cce2c1381ba742999546b5,2011-0609-USA,USA,United States of America,Northern America,Americas,"Illinois, Indiana, Iowa, Kansas, Michigan, Minnesota, Missouri, Nebraska, North Dakota, Ohio, South Dakota, Wisconsin, Alabama, Arkansas, Delaware, Florida, Georgia, Kentucky, Louisiana, Maryland, Mississippi, North Carolina, South Carolina, Tennessee, Virginia, West Virginia, Colorado, Kansas, Montana, Nebraska, New Mexico, North Dakota, Oklahoma, South Dakota, Texas, Wyoming provinces",,,
e3810d4dbb52db717aa628aca9ad3503,2011-0610-USA,USA,United States of America,Northern America,Americas,"Mississippi, Ohio provinces",,,
44387aa8b440e04d7298deaa9a06be7d,2011-0611-USA,USA,United States of America,Northern America,Americas,"Illinois, Indiana, Iowa, Kansas, Michigan, Minnesota, Missouri, Nebraska, North Dakota, Ohio, South Dakota, Wisconsin, New York, New Jersey, Pennsylvania provinces",,,
6fed7fcf2bca71749d5477d3e5357623,2011-0630-CAN,CAN,Canada,Northern America,Americas,"Slave Lake area (Division No. 17 district, Alberta province)",,,
3d0e212a8ec41e41a432b349fb8818db,2011-0639-USA,USA,United States of America,Northern America,Americas,"Arizona, Minnesota, Texas, Florida provinces",,,
5d69e8c82934eda98294c91587aa1d2a,2011-0646-USA,USA,United States of America,Northern America,Americas,"Montana, North Dakota, South Dakota, Iowa, Missouri provinces",,,Missouri river basin
f53ec13e6c558ab2b811bec87988b38f,2011-9363-USA,USA,United States of America,Northern America,Americas,"Texas, Oklahoma, New Mexico, Arizona, Kansas, Louisiana provinces",,,
c94ad82fbf5d5b0acfc818c3116a30fe,2012-0010-USA,USA,United States of America,Northern America,Americas,"Jefferson, Chilton districts (Alabama province)",,,
1d3e197fc2bc8c16066dc3d332e19129,2012-0055-USA,USA,United States of America,Northern America,Americas,"Nebraska, Kansas, Missouri, Illinois, Indiana, Kentucky provinces",,,
b7d8b1cbfef2dabbcbfd800e24e901b1,2012-0060-USA,USA,United States of America,Northern America,Americas,"Alabama, Tennessee, Illinois, Kentucky, Indiana, Ohio, Georgia, Florida, Mississippi, North Carolina, Virginia provinces",,,
603173a59637b29b30688b1a625dd0d0,2012-0068-CAN,CAN,Canada,Northern America,Americas,"Perth-Andover village (Victoria district, New Brunswick province)",46.5994,-67.5,
7a06288bf8d7cd9af0edb6d5a6f57acf,2012-0122-USA,USA,United States of America,Northern America,Americas,"Dallas, Tarrant districts (Texas province)",,,
0a98049ca1edfced7d41c34703921c5a,2012-0156-USA,USA,United States of America,Northern America,Americas,"Oklahoma, Kansas, Iowa, Nebraska, South Dakota, Minnesota provinces",,,
a1f426d74be3849a0eb68969859da7b7,2012-0176-USA,USA,United States of America,Northern America,Americas,"Bay, Calhoun, Escambia, Franklin, Gadsden, Gulf, Holmes, Jackson, Jefferson, Leon, Liberty, Madison, Okaloosa, Santa Rosa, Taylor, Wakulla, Walton, Washington, Brevard, Citrus, Hardee, Hernando, Hillsborough, Indian River, Lake, Manatee, Marion, Orange, Osceola, Pasco, Pinellas, Polk, Seminole, Sumter, Volusia districts",28.9635,-82.5,
79b05591f1374f5937aa60c50e7e712e,2012-0177-USA,USA,United States of America,Northern America,Americas,"Bay, Calhoun, Escambia, Franklin, Gadsden, Gulf, Holmes, Jackson, Jefferson, Leon, Liberty, Madison, Okaloosa, Santa Rosa, Taylor, Wakulla, Walton, Washington districts (Florida province), Alabama, Mississippi, Louisiana provinces",30.3632,-58.51,
79882369e57a013bf3664c95ba1211bc,2012-0214-USA,USA,United States of America,Northern America,Americas,"District of Columbia, Iowa, Virginia, North Carolina provinces",,,
9b083e26715b1a24921ed7dc4236545d,2012-0232-USA,USA,United States of America,Northern America,Americas,"Colorado Springs city (El Paso district, Colorado province)",,,
7ec5b288d6a7308ec60f8bd42784ab16,2012-0234-USA,USA,United States of America,Northern America,Americas,District of Columbia province,,,
a34b7f21a30320adfc5a77392014f568,2012-0313-USA,USA,United States of America,Northern America,Americas,"Mississippi, Louisiana provinces",30.503,-89.35,
c06b585367889330c2619f5336768e33,2012-0410-USA,USA,United States of America,Northern America,Americas,"New York, New Jersey, Pennsylvania, Connecticut, Ohio, Delaware, Rhode Island, Maryland, Massachusetts, Maine, New Hampshire, North Carolina, Vermont, Virginia, District of Columbia, West Virginia provinces",,,
2cedd53b5dd6f0b2419c30d7a12b2050,2012-0486-USA,USA,United States of America,Northern America,Americas,"Wisconsin, Iowa, Nebraska, Kansas provinces",,,
73ab89cb286f2feb6bf944f9dd1f470c,2012-0493-CAN,CAN,Canada,Northern America,Americas,"Quebec, Ontario, Nova Scotia provinces",,,
40e5cecd56f0e0db5754fea6ed70eb78,2012-0493-USA,USA,United States of America,Northern America,Americas,"Texas, Louisiana, Alabama, Mississippi, Arkansas, Indiana, Pennsylvania, Virginia, New York, New Jersey provinces",,,
74559b3c58397b13e044082d0ef25e40,2012-0503-USA,USA,United States of America,Northern America,Americas,"Ohio, Virginia, Maryland, West Virginia, District of Columbia, Illinois, Indiana, Kentucky, New Jersey, North Carolina, South Carolina provinces",,,
0cc5bca5141531e6980a493082b16a12,2012-0542-USA,USA,United States of America,Northern America,Americas,"Cleveland, Creek, Oklahoma, Payne districts (Oklahoma province)",,,
0415ef5acdd6d6e0764e809f95d13f7b,2012-0601-USA,USA,United States of America,Northern America,Americas,"Missouri, Illinois, Kentucky, Texas, Indiana provinces",,,
ecb0a4ef2b51ae8aa77c9004741cd4f3,2012-0611-USA,USA,United States of America,Northern America,Americas,"Oregon, Washington provinces",,,
be879204fa2523a48d87f067346b8948,2012-0612-USA,USA,United States of America,Northern America,Americas,"Oklahoma, Kansas, Minnesota, Texas, Pennsylvania, New York provinces",,,
9eea3a9cfb5ab432e1f917298208d190,2012-0613-USA,USA,United States of America,Northern America,Americas,"Colorado, Wyoming provinces",,,
911c9659f15d26ab7ab003546e231583,2012-0614-USA,USA,United States of America,Northern America,Americas,"Texas, New Mexico provinces",,,
4108c4a841b13f7e9b7bd5cc371ef19d,2012-0615-USA,USA,United States of America,Northern America,Americas,"Ohio, Minnesota, Pennsylvania, Michigan, Wisconsin provinces",,,
d53ecb9e797fdf32dacbdab3ad97ce52,2012-0616-USA,USA,United States of America,Northern America,Americas,"Missouri, Pennsylvania, Virginia, Arkansas, Oklahoma, Maryland, New York provinces",,,
d256cd049bfdc1465371bf49ea28a179,2012-0626-CAN,CAN,Canada,Northern America,Americas,"Calgary town (Division No. 6 district, Alberta province)",,,
f24d09690dd2e89f95811a8ea1e149d8,2012-9235-USA,USA,United States of America,Northern America,Americas,"Illinois, Indiana, Iowa, Kansas, Michigan, Minnesota, Missouri, Nebraska, North Dakota, Ohio, South Dakota, Wisconsin provinces",,,
cd5d7645bc5eb867b1c38f368536607d,2012-9489-USA,USA,United States of America,Northern America,Americas,"Illinois, Indiana, Iowa, Kansas, Michigan, Minnesota, Missouri, Nebraska, North Dakota, Ohio, South Dakota, Wisconsin, Arizona, California, Colorado, Nevada, New Mexico, Oklahoma, Texas, Utah provinces",,,
bb3039172f78fddfcb3b3f055115938d,2013-0013-USA,USA,United States of America,Northern America,Americas,"Alabama, Arkansas, Delaware, Florida, Georgia, Kentucky, Louisiana, Maryland, Mississippi, North Carolina, South Carolina, Tennessee, Virginia, West Virginia, Illinois, Indiana, Iowa, Kansas, Michigan, Minnesota, Missouri, Nebraska, North Dakota, Ohio, South Dakota, Wisconsin, Colorado, Kansas, Montana, New Mexico, Oklahoma, Texas, Wyoming provinces",,,
16caa54602f3d5df211400142cb9202b,2013-0054-USA,USA,United States of America,Northern America,Americas,"Maine, New Hampshire, Vermont, Massachusetts, Rhode Island, Connecticut, New York, New Jersey, Pennsylvania provinces",,,
0dccdc8a76ca6d924fd893345f9c5d89,2013-0055-USA,USA,United States of America,Northern America,Americas,"South Dakota, North Dakota, Nebraska, Minnesota, Alabama, Illinois, Indiana, Iowa, Kansas, Michigan, Minnesota, Missouri, Nebraska, North Dakota, Ohio, South Dakota, Wisconsin, Alabama, Arkansas, Delaware, Florida, Georgia, Kentucky, Louisiana, Maryland, Mississippi, North Carolina, South Carolina, Tennessee, Virginia, West Virginia provinces",,,
1b45214e4274fab600283ece0e161f11,2013-0117-USA,USA,United States of America,Northern America,Americas,"California, Colorado, Kansas, Montana, Nebraska, New Mexico, North Dakota, Oklahoma, South Dakota, Texas, Wyoming, Illinois, Indiana, Iowa, Kansas, Michigan, Minnesota, Missouri, Nebraska, North Dakota, Ohio, South Dakota, Wisconsin, Alabama, Arkansas, Delaware, Florida, Georgia, Kentucky, Louisiana, Maryland, Mississippi, North Carolina, South Carolina, Tennessee, Virginia, West Virginia provinces",,,
6c48a9ab98a26e858a4bfae87b48f29d,2013-0118-USA,USA,United States of America,Northern America,Americas,"Colorado, Kansas, Montana, Nebraska, New Mexico, North Dakota, Oklahoma, South Dakota, Texas, Wyoming, Illinois, Indiana, Iowa, Michigan, Minnesota, Missouri, Nebraska, North Dakota, Ohio, South Dakota, Wisconsin provinces",,,
52eebe7bfeee231c8f92bd50652e6635,2013-0142-USA,USA,United States of America,Northern America,Americas,"Maine, New Hampshire, Vermont, Massachusetts, Rhode Island, Connecticut, Colorado, Kansas, Montana, Nebraska, New Mexico, North Dakota, Oklahoma, South Dakota, Texas, Wyoming, Illinois, Indiana, Iowa, Kansas, Michigan, Minnesota, Missouri, Nebraska, North Dakota, Ohio, South Dakota, Wisconsin, Alabama, Arkansas, Delaware, Florida, Georgia, Kentucky, Louisiana, Maryland, Mississippi, North Carolina, South Carolina, Tennessee, Virginia, West Virginia, New York, New Jersey, Pennsylvania provinces",,,
08b907d2d09ef8afc1b39e4f6c722e70,2013-0183-USA,USA,United States of America,Northern America,Americas,"Colorado, Kansas, Montana, Nebraska, New Mexico, North Dakota, Oklahoma, South Dakota, Texas, Wyoming, Alabama, Arkansas, Delaware, Florida, Georgia, Kentucky, Louisiana, Maryland, Mississippi, North Carolina, South Carolina, Tennessee, Virginia, West Virginia provinces",,,
fad7edc37a59ac79559257e17ca83735,2013-0184-USA,USA,United States of America,Northern America,Americas,"Colorado, Kansas, Montana, Nebraska, New Mexico, North Dakota, Oklahoma, South Dakota, Texas, Wyoming, Illinois, Indiana, Iowa, Kansas, Michigan, Minnesota, Missouri, Nebraska, North Dakota, Ohio, South Dakota, Wisconsin, Maine, New Hampshire, Vermont, Massachusetts, Rhode Island, Connecticut, New York, New Jersey, Pennsylvania provinces",,,
79e8cc438b7141b928fbad4f7f9177df,2013-0190-CAN,CAN,Canada,Northern America,Americas,"Calgary city (Division No. 6 district, Southern Alberta province)",51.24,-109.64,"Sheep, Red Deer, Hihwood, Saskatchevan rivers"
6e2f022a3648c38d6702f718d57e481d,2013-0209-USA,USA,United States of America,Northern America,Americas,Los Angeles district (California province),,,
e236795e6f7b82f36cd748c39d01df36,2013-0210-USA,USA,United States of America,Northern America,Americas,"Black Forest area (El Paso district, Colorado province)",,,
c8212c1a61cae1a931a317f984080fe9,2013-0211-USA,USA,United States of America,Northern America,Americas,"Illinois, Indiana, Iowa, Kansas, Michigan, Minnesota, Missouri, Nebraska, North Dakota, Ohio, South Dakota, Wisconsin, New York, New Jersey, Pennsylvania, Maine, New Hampshire, Vermont, Massachusetts, Rhode Island, Connecticut, Alabama, Arkansas, Delaware, Florida, Georgia, Kentucky, Louisiana, Maryland, Mississippi, North Carolina, South Carolina, Tennessee, Virginia, West Virginia provinces",,,
e0b72fa2adfcd193db3f444f5d975ee2,2013-0212-USA,USA,United States of America,Northern America,Americas,"Yarnell area (Yavapai district, Arizona province)",,,
bcd0a4debebcd5b6c52dfc2495b0b1dc,2013-0254-USA,USA,United States of America,Northern America,Americas,"Cleveland, Lincoln, Catawba districts (North Carolina province), Pennsylvania province",,,
2c303e56c16bdc343ecab075aef36b20,2013-0277-USA,USA,United States of America,Northern America,Americas,"Missouri, Kansas, Tennessee, Arkansas, Oklahoma provinces",38.2138,-94.15,
ba1e2353360cba1e942ffb8e2d295d10,2013-0286-USA,USA,United States of America,Northern America,Americas,"San Antonio town (Bexar district, Texas province)",28.899,-98.89,
ad607f03ad30e283c7bb5d2e0dc1846e,2013-0291-USA,USA,United States of America,Northern America,Americas,"Iowa, Michigan, Minnesota, Wisconsin provinces",38.8278,-88.64,
9a02336fec96340dd3fba5cd786bf1cb,2013-0315-USA,USA,United States of America,Northern America,Americas,"Yosemite valley (Mariposa district, California province)",,,
ec0739c1aebeb9833fd1005713dc9e05,2013-0334-USA,USA,United States of America,Northern America,Americas,"Colorado, Wyoming, Montana provinces",,,
f37be256cf8ac7f527976e5985394253,2013-0354-USA,USA,United States of America,Northern America,Americas,"Lafayette, Lyons, Longmont towns (Boulder district, Colorado province), Larimer, El Paso, Broomfield districts (Colorado province), New Mexico province",38.002,-105.143,
1eea0a55777838ecc21330c4ef6956fd,2013-0404-USA,USA,United States of America,Northern America,Americas,Shasta district (California province),,,
406b3b911c46e9363611f6582ebd9534,2013-0439-USA,USA,United States of America,Northern America,Americas,"Illinois, Indiana, Kentucky, Ohio, Michigan, Wisconsin, Missouri provinces",,,
6a647f21abf73b8dc2d71c4472993751,2013-0472-USA,USA,United States of America,Northern America,Americas,"Oklahoma, Texas, California, New Mexico, Arizona provinces",,,
a23efb859c773d482d6a0e831fa17b8f,2013-0510-USA,USA,United States of America,Northern America,Americas,Austin district (Texas province),30.66,-96.01,
f94f3b52cbd5af2fde490f86e6993a51,2013-0528-CAN,CAN,Canada,Northern America,Americas,"Ontario, Quebec provinces",,,
0ed2bbcd33e3eb8cfa57c325fa65436b,2013-0528-USA,USA,United States of America,Northern America,Americas,"Michigan, Ohio, New York, Vermont, Maine, Kansas, Iowa, Texas, Wisconsin, Illinois, Minnesota, Arkansas, Louisiana, Mississippi, Kentucky provinces",,,
f5455e2e473f667a76237cf3afb70982,2013-0548-USA,USA,United States of America,Northern America,Americas,"Louisiana, South Carolina, Mississippi provinces",,,
995dbf2c4e8d676be54c3c4787aab3df,2013-0550-USA,USA,United States of America,Northern America,Americas,"Alabama, Arkansas, Connecticut, Delaware, Florida, Georgia, Kentucky, Louisiana, Maine, Maryland, Massachusetts, Mississippi, New Hampshire, New Jersey, New York, North Carolina, Oklahoma, Pennsylvania, Rhode Island, South Carolina, Tennessee, Texas, Vermont, Virginia, West Virginia provinces",,,
50ef937ccec74be88db668a8422b29fc,2013-0558-USA,USA,United States of America,Northern America,Americas,"Nelson, Carroll districts (Kentucky province)",37.5597,-86.79,
32dfde1092e47daafcc1e2deb2626781,2013-0579-USA,USA,United States of America,Northern America,Americas,"Texas, Oklahoma, Louisiana provinces",,,
e434a3f497b0a5aa2ec2d5cc55a8e5c4,2013-0580-CAN,CAN,Canada,Northern America,Americas,Toronto district (Ontario province),,,
b7ff1faea3053df09b0f3bc5411daf81,2014-0009-CAN,CAN,Canada,Northern America,Americas,"Ontario, Manitoba, Saskatchewan provinces",,,
39b404b368b83ae7da6b19d699aef6d9,2014-0009-USA,USA,United States of America,Northern America,Americas,"New York, Minnesota, Georgia, Maryland, Alaska, Alabama, Mississippi, Louisiana, North Carolina, South Carolina, Ohio, Indiana, Illinois, Pennsylvania, Michigan, New Jersey, Virginia, Kentucky, Missouri provinces",,,
444b27bcb3f799d6d1a77534e483bd0d,2014-0048-USA,USA,United States of America,Northern America,Americas,"Illinois, Indiana, Iowa, Kansas, Michigan, Minnesota, Missouri, Nebraska, North Dakota, Ohio, South Dakota, Wisconsin, Colorado, Kansas, Montana, Nebraska, New Mexico, North Dakota, Oklahoma, South Dakota, Texas, Wyoming, Maine, New Hampshire, Vermont, Massachusetts, Rhode Island, Connecticut, New York, New Jersey, Pennsylvania provinces",,,
4d183119748a138481084ac44f79ed27,2014-0052-USA,USA,United States of America,Northern America,Americas,"Illinois, Indiana, Iowa, Kansas, Michigan, Minnesota, Missouri, Nebraska, North Dakota, Ohio, South Dakota, Wisconsin, Maine, Massachusetts, New Hampshire, Vermont, Rhode Island, Connecticut, New York, New Jersey, Pennsylvania, Maryland provinces",,,
4d297567b35c20267c680b7d7d5f621b,2014-0053-USA,USA,United States of America,Northern America,Americas,"Georgia, Alabama, Mississippi, Louisiana, North Carolina, South Carolina provinces",,,
ac73557b648c39a34b43b0878434c1fb,2014-0072-USA,USA,United States of America,Northern America,Americas,"District of Columbia, New York, Georgia, South Carolina, North Carolina, Pennsylvania provinces",,,
3d856baead846b91b47db3cdf2970f3c,2014-0095-USA,USA,United States of America,Northern America,Americas,"Oso village (Snohomish district, Washington province)",,,
7a23e9c69de0a378e6887baa0651a93d,2014-0100-USA,USA,United States of America,Northern America,Americas,"California, Colorado, Kansas, Montana, Nebraska, New Mexico, North Dakota, Oklahoma, South Dakota, Texas, Wyoming, Illinois, Indiana, Iowa, Kansas, Michigan, Minnesota, Missouri, Nebraska, North Dakota, Ohio, South Dakota, Wisconsin, Tennessee, New York, New Jersey, Pennsylvania provinces",,,
ff582a4f44ef948adb8efe96a2780000,2014-0126-USA,USA,United States of America,Northern America,Americas,"Colorado, Kansas, Montana, Nebraska, New Mexico, North Dakota, Oklahoma, South Dakota, Texas, Wyoming, Mississippi, Alabama, Arkansas, Delaware, Florida, Georgia, Kentucky, Louisiana, Maryland, Mississippi, North Carolina, South Carolina, Tennessee, Virginia, West Virginia, Illinois, Indiana, Iowa, Kansas, Michigan, Minnesota, Missouri, Nebraska, North Dakota, Ohio, South Dakota, Wisconsin, Florida, Alabama, New York, New Jersey, Pennsylvania provinces",,,
9770f2afdc9bf1dd105e1a313e29b427,2014-0165-USA,USA,United States of America,Northern America,Americas,"Hutchinson district (Texas province), San Diego district (California province)",,,
79cd13ad2dd776ce219e091a0d4f480a,2014-0192-USA,USA,United States of America,Northern America,Americas,"Illinois, Indiana, Iowa, Kansas, Michigan, Minnesota, Missouri, North Dakota, Ohio, South Dakota, Wisconsin, Kansas, Nebraska, New Mexico, North Dakota, Oklahoma, South Dakota, Texas, Wyoming, Arizona, Idaho, Montana, Nevada, New Mexico, Utah, Wyoming, New York, New Jersey, Pennsylvania, Maine, New Hampshire, Vermont, Massachusetts, Rhode Island, Connecticut provinces",,,
ae7d20824f9c57018a601a40fb231b4d,2014-0263-USA,USA,United States of America,Northern America,Americas,"Colorado, Kansas, Montana, Nebraska, New Mexico, North Dakota, Oklahoma, Texas, Wyoming, Illinois, Indiana, Iowa, Michigan, Minnesota, Missouri, Ohio, South Dakota, Wisconsin, New York, New Jersey, Pennsylvania, Maine, New Hampshire, Vermont, Massachusetts, Rhode Island, Connecticut, Tennessee provinces",,,
eba47eed2e9763a992de04d75290786e,2014-0310-USA,USA,United States of America,Northern America,Americas,Hawaii province,,,
a912f579ef6c3e446fb821ad3f3aa267,2014-0317-USA,USA,United States of America,Northern America,Americas,"Illinois, Indiana, Iowa, Kansas, Michigan, Minnesota, Missouri, Nebraska, North Dakota, Ohio, South Dakota, Wisconsin, Maine, New Hampshire, Vermont, Massachusetts, Rhode Island, Connecticut, New York, New Jersey, Pennsylvanie, Maryland provinces",,,
badd65e39e510428d102ab1520f8f8e6,2014-0318-USA,USA,United States of America,Northern America,Americas,"San Francisco Bay (San Francisco district) , Napa Valley (Napa district) ; Sonoma, Solano district (California province) ; Vallejo, Mare Island cities (Solano district, California province)",38.2151667,-122.3123333,
8145bdae6e35276ddd06acdf2c87af58,2014-0319-CAN,CAN,Canada,Northern America,Americas,"Burlington city (Halton district, Ontario province)",,,
80bc7fdbc3c1bd14f8a41a2af201024f,2014-0444-USA,USA,United States of America,Northern America,Americas,"Arkansas, Louisiana, Alabama, Mississippi, Kentucky, Illinois, Texas provinces",,,
dac9b62ab794fdce0d6efb5dfee2901c,2014-0459-USA,USA,United States of America,Northern America,Americas,"New York, New Hampshire, Michigan provinces",,,
649a13a6adf884bf50c2a10ce05ef2c4,2014-0482-USA,USA,United States of America,Northern America,Americas,"Los Angeles, San Diego districts (California province), Oregon province",,,
1a76fcbde3f07fa1adac665624b48744,2014-0491-USA,USA,United States of America,Northern America,Americas,"Orange, Mariposa, Tuolumne, Los Angeles, San Francisco, Sacaramento districts (California province)",,,
c68ff66ff3f864f7367830f8c229394e,2014-0540-USA,USA,United States of America,Northern America,Americas,"Blair area (Washington district, Nebraska province), Iowa, Kansas, Arkansas, Wyoming provinces",,,
6d1daf1d3d90f4195301810ca3ef8dea,2014-9023-USA,USA,United States of America,Northern America,Americas,San Joaquin district (California province),,,
9fd974b2bc32d7d64991e8d33f264cde,2015-0025-USA,USA,United States of America,Northern America,Americas,"Illinois, Wisconsin, Pennsylvania provinces",,,
e38a255b5f1dde78ae02d1278f58c2fe,2015-0026-USA,USA,United States of America,Northern America,Americas,"Connecticut, Maine, Massachusetts, New Hampshire, New Jersey, New York, Rhode Island",,,
b4ad874db8506018ed7b70dded12463c,2015-0046-USA,USA,United States of America,Northern America,Americas,"Tennessee, Kansas, District of Columbia, Boston, Ohio, Virginia, Georgia, North Carolina, South Carolina provinces",,,
e738095b40f2a453f2479293f2180c8c,2015-0072-USA,USA,United States of America,Northern America,Americas,"Illinois, Michigan, Massachusetts, New York, Connecticut, Indiana provinces",,,
8f0875291979c46ded28f7039fd718c9,2015-0073-USA,USA,United States of America,Northern America,Americas,"Massachusetts, New York, Tennessee, Maryland, Virginia, Pennsylvania, Kentucky, North Carolina, Michigan, Rhode Island, New Hampshire, Ohio, South Carolina, Illinois, District of Columbia, Maine, Vermont provinces",,,
972576554caa1acc81a7548a7c2deab6,2015-0122-USA,USA,United States of America,Northern America,Americas,"New York, Pennsylvania, Kentucky, West Virginia, Arkansas provinces",,,
6b7d4b523ee7d800d6717eb13320dd10,2015-0123-USA,USA,United States of America,Northern America,Americas,"Moore area (Cleveland district, Oklahoma province), Osage, Tulsa districts (Oklahoma province), Kansas, Missouri, Arkansas provinces",,,
6d03a2496072267f9e19c9edc77ad703,2015-0138-USA,USA,United States of America,Northern America,Americas,"Fairdale area (DeKalb district, Illinois province), Rochelle town (Ogle district, Illinois province), Missouri, North Carolina, Indiana, Ohio, Kentucky, Texas, Iowa, Arkansas, Michigan, West Virginia, Wisconsin, Pennsylvania, Oklahoma, Kansas, Tennessee provinces",,,
4a83b86ab62a48fc6b8ac0e3dfa18d53,2015-0155-USA,USA,United States of America,Northern America,Americas,"Texas, Louisiana, Alabama, Mississippi, Kentucky, Georgia, Florida provinces",,,
b1e07ae0df13a3d4574e6c433758c2a0,2015-0177-USA,USA,United States of America,Northern America,Americas,"Nashville town (Howard district, Arkansas province); Van town (Van Zandt district, Texas province), Delmond town (Douglas district, South Dakota province), Colorado, Oklahoma, Kansas, Iowa provinces",,,
e5c7e4562a4573e3870bd31207949c23,2015-0180-USA,USA,United States of America,Northern America,Americas,"Kansas, Nebraska, Texas, Oklahoma, Minnesota, Iowa, Wisconsin provinces",,,
f165b11573b4df79deface7c195a87e8,2015-0186-USA,USA,United States of America,Northern America,Americas,"San Marcos area (Hays district, Texas province), Claremore area (Hays district, Oklahoma province)",,,
e0913d37746fe7056cf781a08fa189fb,2015-0211-USA,USA,United States of America,Northern America,Americas,"Texas, Oklahoma, Kansas, Nebraska, Missouri, Colorado, Minnesota, South Dakota provinces",,,
7d0bfb9df892c15691e4b67d0a03e3a2,2015-0212-USA,USA,United States of America,Northern America,Americas,"Texas, Oklahoma, Colorado, Arkansas, Kansas, Louisiana, Georgia, Ohio, South Carolina",34.1936,-97.99,
c92ca2a281efb7be6295e5f1fe70597a,2015-0245-USA,USA,United States of America,Northern America,Americas,"Colorado, Illinois provinces",,,
c877ec79a4730d1ef37bec0b0177150d,2015-0275-CAN,CAN,Canada,Northern America,Americas,"Saskatchewan, Alberta, British Columbia provinces",,,
39d7b063551020062da710a9b4ff8a7e,2015-0312-USA,USA,United States of America,Northern America,Americas,"Lake, Napa, Solano, Yolo, Modoc, Colusa districts (California province)",,,
a4063bf5a41747947dae059e349a05a0,2015-0326-USA,USA,United States of America,Northern America,Americas,"Illinois, Indiana, Wisconsin, Minnesota, Ohio, Iowa, Kentucky, Tennessee, Missouri, South Carolina, North Carolina",,,
9d7cfe873da5ba4e1526ab4258009dcb,2015-0399-USA,USA,United States of America,Northern America,Americas,"Hillsborough, Pasco, Pinellas, Dixie, Taylor districts (Florida province)",,,
f602d13bc0ce3f4f8bdca89bf1ff03a8,2015-0400-USA,USA,United States of America,Northern America,Americas,"Chicago, Lincolnwood towns (Cook district, Illinois province), Wood Dale town (DuPage district, Illinois province), Lancaster town (Coos district, New Hampshire province), Indiana, Ohio, Connecticut, Michigan, Massachusetts, Wisconsin, Rhode Island, Maine, New York provinces",,,
279ebf1016b1121943a14968b4ae873b,2015-0401-USA,USA,United States of America,Northern America,Americas,"California, Idaho, Montana, Oregon, Washington provinces",,,
9fbef80394045db860e69385ece6c50e,2015-0421-USA,USA,United States of America,Northern America,Americas,"Lake, Napa, Sonoma, Butte districts (California province)",,,
2071a4b6df7ed09eab6ca4bb088aab64,2015-0431-USA,USA,United States of America,Northern America,Americas,"Hildale town (Washington district, Utah province), Las Vegas town (Clark district, Nevada province)",,,
789ba7b935adbaa52523fa3ca4b6a559,2015-0459-USA,USA,United States of America,Northern America,Americas,"South Carolina, North Carolina",33.503,-80.493,
0d338ba1785175f76441d1b429d0efd5,2015-0488-USA,USA,United States of America,Northern America,Americas,"Austin, Houston districts (Texas province), Lousiana province",,,
68b5f8aee1b929a1c215afdbddf14fe9,2015-0531-USA,USA,United States of America,Northern America,Americas,"Texas, Kansas, Oklahoma provinces",,,
db7e2b885dcafd5f05778c888a86a399,2015-0558-USA,USA,United States of America,Northern America,Americas,"Dallas, Ellis, Collin districts (Texas province), Mississippi, Tennessee, Arkansas, Alabama, Georgia, New Mexico, Missouri, Kentucky, Indiana, Oklahoma, Illinois provinces",,,
e96371518e7a5dd7288f9e2ba1f81b3d,2015-0565-USA,USA,United States of America,Northern America,Americas,"Mississippi, Missouri, Kentucky, Tennessee, Arkansas, Alabama, Illinois, Indiana, Louisiana provinces",35.666,-91.083,Mississippi river
fe1433cf41dfbd65097df1c7f2a699c1,2015-0613-USA,USA,United States of America,Northern America,Americas,"Amador, Calaveras (California)",,,
aeed407829abd613e04e91ef38c59a9a,2015-9210-USA,USA,United States of America,Northern America,Americas,"California, Nevada, Oregon, Washington, Idaho, Montana, Utah, Arizona provinces",,,
bf7f271018780d8d16a8bcb8ae173591,2016-0010-USA,USA,United States of America,Northern America,Americas,"Washington D.C. (District of Columbia district, District of Columbia province), New York, New Jersey, Pennsylvania, Maryland, Virginia, Tennessee, Kentucky, Delaware, West Virginia, Georgia, North Carolina provinces",,,
99b7ecb7141a2b9f3f5e07d2c3f19339,2016-0012-USA,USA,United States of America,Northern America,Americas,"Ventura, Orange, San Diego, Los Angles districts (California province)",,,
cb38e41d2da64f50a973a0b3c92622bf,2016-0051-USA,USA,United States of America,Northern America,Americas,"Alabama, Mississippi, Virginia, Connecticut, Florida, Georgia, Louisiana, Massachusetts, Maryland, North Carolina, New Jersey, New York, Pennsylvania, South Carolina, Texas",,,
b56c8d984552078fb02f5b544e9636ce,2016-0085-USA,USA,United States of America,Northern America,Americas,"California, Lousiana, Texas, Arkansas, Tennessee, Mississippi, Alabama, Oklahoma, Kentucky, Ohio provinces",,,
d9a7549695d719d3a4abeedb920bee2e,2016-0086-USA,USA,United States of America,Northern America,Americas,"Texas, Mississippi, Louisiana, Florida provinces",,,
5358e3d0a58f95e1d8e67084d0503ac7,2016-0087-USA,USA,United States of America,Northern America,Americas,"Texas, Oklahoma, Louisiana, Arkansas, Mississippi, Alabama, Florida provinces",,,
ac1fef0f95fb167703c1a196d26f20a9,2016-0123-USA,USA,United States of America,Northern America,Americas,"Dallas-Fort Worth (Dallas, Wise, Tarrant, Denton, Parker), Wylie, Plano, Little Elm, Rockwall, Bettie, Emory in Collin, Denton, Upshur, Rockwall, Rains, San Antonio metro regions, Helotes, Alamo Heights, Kirby, Hollywood Park, Carrizo Springs, Terrel Hills (Bexar, Dimmit) (Texas), Oklahoma, Kansas, Missouri, Arkansas, Mississippi, Louisiana",,,
a5645cc54dbd850f6af4521f915bab9c,2016-0124-USA,USA,United States of America,Northern America,Americas,"Fayette, Grimes, Harris, Parker counties, Houston districts (Texas province)",,,
407f9ee3e3aba3338f97cb4a9dff7099,2016-0125-USA,USA,United States of America,Northern America,Americas,"Texas, Oklahoma, Arkansas, Louisiana, Mississippi, Kansas, Virginia, North Carolina, Georgia, Missouri, Illinois, West Virginia provinces",,,
021e2075922b7a6836b8e81bcfa6b337,2016-0150-USA,USA,United States of America,Northern America,Americas,"Oklahoma, Colorado, Nebraska, Kansas, Iowa, Missouri, Arkansas, Illinois, Kentucky, Texas,Tennessee states",,,
62723b30769a2de5af24d6046bf765f6,2016-0170-USA,USA,United States of America,Northern America,Americas,"Palestine city (Anderson district, Texas province), Houston district (Texas province)",,,
f25b7c337b5bcfa482b17f8178bb7690,2016-0172-CAN,CAN,Canada,Northern America,Americas,"Fort McMurray city (Wood Buffalo area, Division No. 16 district, Alberta province)",,,
755447fb928930419dca6cc2c56c9baa,2016-0181-USA,USA,United States of America,Northern America,Americas,"Houston district (Texas province), Brenham city (Washington district, Texas province); Montana, Kansas, Missouri, Colorado",,,
a7a8afd627366a25ea53f7f998d209bd,2016-0183-USA,USA,United States of America,Northern America,Americas,"Texas, Oklahoma, Arkansas, Kansas, Nebraska provinces",30.857,-95.537,
7890144c72955f1f4dbaa28700b64267,2016-0203-USA,USA,United States of America,Northern America,Americas,"Greenbier district (West Virginia province); Ohio, Indiana, Illinois, Wisconsin, Virginia",38.945,-80.555,
083f22be571aaad4489547fc6a01cb9d,2016-0206-USA,USA,United States of America,Northern America,Americas,California province,,,
94ba353b8b5b2eb4860e766f3a64ba11,2016-0243-CAN,CAN,Canada,Northern America,Americas,"Chetwynd, Lemoray, Dawson Creek, Link Creek, Braden Road, Mackenzie, Fort St. John cities (Peace River district, British Columbia/Colombie-Britannique province)",58.292,-123.249,
6f36ff5d4eb4fcec93f77eef3170e3b6,2016-0264-USA,USA,United States of America,Northern America,Americas,"Los Angeles, San Francisco districts (California province)",,,
ae65e6adfedccf3175d4d432a37c111d,2016-0292-USA,USA,United States of America,Northern America,Americas,"Louisiana, Mississippi, Missouri, Illinois, Indiana; Allamakee, Clayton, Fayette, Howard, Winneshiek counties (Iowa)",29.988,-91.8,
15db24007098de9cd10be427356c55f6,2016-0297-USA,USA,United States of America,Northern America,Americas,"Lower Lake, Clearlake (Lake district, California province)",,,
f5d72ee0d8fd7054b1461059e2059955,2016-0322-USA,USA,United States of America,Northern America,Americas,"Georgia, Florida, South Carolina, New York, New Jersey; Cedar Key, Florida, Aurora (North Carolina); Virginia Tidewater region",,,
5660650d579b5f8ab6daa3a8284c6627,2016-0331-USA,USA,United States of America,Northern America,Americas,"Minnesota; Buffalo, Chippewa, Clark, Columbia, Crawford, Eau Claire, Jackson, La Crosse, Monroe, Richland, Sauk, Trempealeau, and Vernon (Wisconsin); Allamakee, Benton, Black Hawk, Bremer, Buchanan, Butler, Cedar, Chickasaw, Delaware, Floyd, Franklin, Linn, Wright (Iowa)",,,
8120a4a4b8de73bfc6235771acf61adf,2016-0355-USA,USA,United States of America,Northern America,Americas,"Florida, Georgia, South Carolina, North Carolina, Virginia provinces",,,
ec5c53ffe6d9ab1b12fc68355e6a924c,2016-0463-USA,USA,United States of America,Northern America,Americas,"Gatlinburg city (Sevier district, Tennessee province)",,,
a44eb19a8522a841784db4ef2d857152,2016-0477-USA,USA,United States of America,Northern America,Americas,"Alabama, Mississippi, Tennessee, Georgia, South Carolina, Louisiana, North Carolina provinces",,,
990c92deef76548cc2bf02eab841e1d2,2016-0493-USA,USA,United States of America,Northern America,Americas,Cushing (Oklahoma),35.991,-96.803,
f8f892029cc2db808f13671a048e3fbe,2016-0521-USA,USA,United States of America,Northern America,Americas,"Northern (Missouri, Maryland, Oklahoma, Indiana, Michigan, New Mexico, Ohio, Virginia)",,,
9a536fb89d357a5f20d7e9e9ff3cd3f2,2016-0550-USA,USA,United States of America,Northern America,Americas,"Texas, Oklahoma, Kansas, Missouri, Nebraska, Illinois, Indiana, Kentucky, Ohio",,,
aee8506f7f4d9a264298faca90ba732f,2016-0552-USA,USA,United States of America,Northern America,Americas,"Texas, Louisiana (Shreveport, Haugton), Arkansas, Mississipi",,,"Sabine river, Little, Red, Big Cypress Creek, Neches, Pearl, Wolf, Leaf, Ouachita"
9bc983c54918125abc10e9ac3e17e2d3,2017-0022-USA,USA,United States of America,Northern America,Americas,"Georgia (cook), Mississippi, Alabama, Louisiana, Florida states",,,
fed6a034f3e7076849527e3998b70ac2,2017-0039-USA,USA,United States of America,Northern America,Americas,"California, Nevada, Idaho, Colorado, Utah, Oregon states",,,
fa3ce348c8379302bdc21a74d96b0922,2017-0058-USA,USA,United States of America,Northern America,Americas,San Jose (North California),,,
cbd459c88b7a5ea6589db1d3f9622ca4,2017-0062-USA,USA,United States of America,Northern America,Americas,"Center and south of California (San Diego, Los Angeles, San Francisco, Sacramento)",,,
f443ad9d1f75e8f9d03c6df048c376a2,2017-0070-USA,USA,United States of America,Northern America,Americas,"Illinois, Missouri, Indiana, Arkansas, Kentucky, Tennessee, Ohio , Georgia, Iowa, North Carolina, Virginia, Alabama, South Carolina, West Virginia, Michigan states",,,
420dcc974301bdd469c030228afe9bc1,2017-0108-USA,USA,United States of America,Northern America,Americas,"South Carolina, Georgia, North Carolina, Tennessee, Alabama, Mssissippi, Florida, Kentucky , Virginia",,,
38527b39d679dbf0fd891cfd030f9b54,2017-0126-CAN,CAN,Canada,Northern America,Americas,"Ottawa (Cumberland, Constance Bay,Fitzroy Harbour, Dunrobin, Britannia, West Carleton-March, MacLarens Landing), Champlain Township (Prescott and Russell), Lanark (Ontario); Montreal, Gatineau, Laval (Quebec); Thompson Nicola (Cache Creek, Lower Nicola Indian Band) Columbia Shushwap (Tappen), Central Okanagan (Kelowna, West Kelowna, Lake country, Fintry Delta),North Okanogan (Lumby), Okanagan Similkameen (Garnett Valley,Summerland), Kootenay Boundary (Grand Forks) (British Colombia); Canadian Maritimes; York, Sunburry (Fredericton, Maugerville), Queens (Jemseg) (New Brunswick) ; Cape Breton Island (Nova Scotia)",45.575,-74.406,"Saint-Laurent river, Ottawa Rivers, Rideau, Gatineau Rivers"
9f1b01b040bb6759d5de93b472899c4b,2017-0136-USA,USA,United States of America,Northern America,Americas,"East and West Canton (Van Zandt county) (Texas); Kampville (St Charles) (Missouri); Logan, Marion, Miles Station (Macoupin), Sumner (Lawrence), Pawnee (Sangamon) (Illinois); Natural Dam (Crawford), Mississipi, Clay (Arkansas); Oak ridge (Morehouse) (Louisiana) ; Labette (Kansas); Cameron (Le Flore) (Oklahoma); Goshen (Oldham) (Kentucky) ; Ohio; Pennsylvania; West Virginia ; Mississipi ; Alabama ; Tennesse ; Indiana",,,"Mississippi river, Black River, White River, Illinois River, Big Muddy River, Meramec River, St. Francis River, Gasconade River"
6112197c709ce0b9e1b9a4394a72226b,2017-0203-USA,USA,United States of America,Northern America,Americas,"Colorado, New Mexico, Texas, Oklahoma, Missouri",,,
11ae2c65d4abf8d150119875615b9244,2017-0234-USA,USA,United States of America,Northern America,Americas,"Colorado, Kansas, Illinois, Indiana, Texas (Gregg County, Tenneryville, Easton, Longview City), Oklahoma (Okfuskee), Missouri (Bates, Carthage, Laclede, Pulaski, Phelps, Dent, Texas Counties, Crawfordsville, Phillipsburg, Edgar Springs, Salem, Evening Shade, Palace, Big Piney), Arkansas, Ohio, Kentucky, Tennessee (Millington, Memphis, Knoxville), Virginia, Louisiana (Natchitoches, DeSoto, Caddo, Caldwell, Franklin, LaSalle, Winn, Rapides, Catahoula, Concordia Parishes, Goldonna), North Dakota, South Dakota, Minnesota, Iowa, Ohio, Pennsylvania, New York, North Carolina (Sampson County, Salemburg, Clinton), South Carolina, Georgia, New Mexico",,,
f6e84511534d8c72e0340ed5c4000195,2017-0252-USA,USA,United States of America,Northern America,Americas,"Butte (Oroville), San Luis Obispo, Santa Barbara (California)",,,
810396ad870b54f0cef9bcaf04128d31,2017-0253-USA,USA,United States of America,Northern America,Americas,"Minnesota (Minneapolis – St. Paul, MN metro region-Twin Cities, Lac Qui Parle County, Montevideo (Chippewa), Slayton (Murray), St. Cloud (Stearns), Monticello (Wright), Coon Rapids (Anoka)), Wisconsin (St. Croix), Upper Peninsula (Michigan), North Dakota (Richardson, Stark County, Morton County, Milton and Langdon in Cavalier County), South Dakota (Deuel, Jerauld, Beadle, and Clark Counties)",,,
3830a757a5b2b18273436cfbc57d8c04,2017-0271-CAN,CAN,Canada,Northern America,Americas,"Cache Creek , Ashcroft, Boston flats (Thompson Nicola), 100 Mile House , Williams Lake (Cariboo) (British Columbia)",,,
5a5f954b0ec7c32d8127bca5c4c9d81d,2017-0282-USA,USA,United States of America,Northern America,Americas,"Ellison Creek (Water wheel) Tonto National Forest (Gila, Arizona)",34.349,-111.264,Ellison Creek
44c4917ebf7521f625cb81cafabf6438,2017-0336-USA,USA,United States of America,Northern America,Americas,"Tulsa (Oklahoma); Texas, Louisiana, Kansas, Missouri",,,
e0c50427373557f2befefb262cb1fc85,2017-0362-USA,USA,United States of America,Northern America,Americas,"Eastern Texas (Rockport, Corpus Chrsti, Port Lavaca, Cypress area of Houston, Houston metro area, Beaumont, Port Arthur, Angelina, Aransas, Atascosa, Austin, Bastrop, Bee, Bexar, Brazoria, Brazos, Burleson, Caldwell, Calhoun, Cameron, Chambers, Colorado, Comal, DeWitt, Fayette, Fort Bend, Galveston, Goliad, Gonzales, Grimes, Guadalupe, Hardin, Harris, Jackson, Jasper, Jefferson, Jim Wells, Karnes, Kerr, Kleberg, Lavaca, Lee, Leon, Liberty, Live Oak, Madison, Matagorda, Montgomery, Newton, Nueces, Orange, Polk, Refugio, Sabine, San Jacinto, San Patricio, Trinity, Tyler, Victoria, Walker, Waller, Washington, Wharton, Willacy, Wilson, San Augustine), Southwestern Louisiana (Acadia, Forrest, Iberia, Lafayette, Vernon, Beauregard, Calcasieu, Cameron (Hackberry), Jefferson Davis, Vermillion, Allen, Natchitoches, Rapides, Sabine)",,,"Sabine River, Brazos River, Navidad River, San Bernard River, San Jacinto River, Trinity River, Clear Creek, Cypress Creek, Davidson Creek, Lake Creek, Menard Creek, Peach Creek, and Buffalo Bayou while the Colorado River, Guadalupe River, Lavaca River, Tres Palacios River, Bedias Creek, Caney Creek, Garcitas Creek, Sandies Creek, Sandy Creek, Spring Creek, Brays Bayou, White Oak Bayou, Greens Bayou"
f846e50e91f46ede86eabca78acc3fcf,2017-0381-USA,USA,United States of America,Northern America,Americas,"Keys islands, Monroe, South Florida, Jacksonville (Duval), Marco Island, Naples (Collier), Fort Lauderdale (Broward), Lakeland (Polk), Orlando (Orange), Clay (Florida), Savannah, Tybee Island (Chatham), Brunswick, St. Simons Island (Glynn), McIntosh, Camden (Georgia), Charleston, Folly Beach, the Isle of Palms, Sullivan’s Island (Charleston) Hilton Head, Beaufort, Edisto Beach (Colleton) (South Carolina)",,,
c2dd5a67493d2dc9d9458aac1d3b0e49,2017-0383-USA,USA,United States of America,Northern America,Americas,"Jersey shore, Seaside Park, Point Pleasant Beach (Ocean), Long Branch (Monmouth) (New Jersey), Fernandina beach (Nassau-Florida)",,,
3cba667744c3d75d63173c9ed327d789,2017-0410-USA,USA,United States of America,Northern America,Americas,"Mexico Gulf, Louisiania, Mississippi (coastal areas, Biloxi), Alabama (Dauphin Island, Autauga, Chilton, Lowndes Counties), Florida, South Carolina (Pickens, Laurens, Spartanburg, Newberry, Greenville, Union), North Carolina (Polk, Wilkes, Ashe )",,,
46a8a2febf5840d7e1eb27a752047d55,2017-0434-USA,USA,United States of America,Northern America,Americas,"Napa, Sonoma, Mendocino, Lake, Solano, Butte, Yuba, Nevada, Humboldt, Calavaras, Orange counties (California)",,,
f992f80b7ecafed12ba7f65e3c059280,2017-0471-CAN,CAN,Canada,Northern America,Americas,"Windsor, Tecumseh, Essex (Ontario)",,,
69f07330a00ec19adf8d87fe90b512df,2017-0511-USA,USA,United States of America,Northern America,Americas,"Ventura, Santa Barbara, Los Angeles, San Diego, Riverside counties (California)",,,
a743f8b9f5165709691bda3b3498d30d,2017-0512-USA,USA,United States of America,Northern America,Americas,"Missouri, Indiana (Bedford in Lawrence, Muncie in Delaware, Salem in Washington, Blackford, Jay), Ohio (Celina in Mercer, Williamsfield in Ashtabula, Clyde in Sandusky, Bloomingville in Erie , Republic, West Lodi in Seneca, Galion in Crawford, Steuben, Norwalk, Fitchville, Wakeman in Huron, Nova and Hayesville in Ashland, South Vienna in Wayne, Calcutta in Columbiana, Clark), Pennsylvania (Erie in Erie), Illinois (Noble in Richland)",,,
cd8f5a4b57b8edb3287be28a1e9bc74f,2017-0542-USA,USA,United States of America,Northern America,Americas,"Georgia, North Carolina, Maryland, Virginia, New York, New Jersey, Massachusetts, Michigan, Texas, Mississippi, Missouri",,,
94ac1731e9740fd5f79a76b8e6f887d0,2017-0563-USA,USA,United States of America,Northern America,Americas,"Missouri (Oak Grove in Jackson County, Clay and Clinton (Trimble, Plattsburg, Lathrop) counties), Iowa (Centerville in Appanoose county, Muscatine), Minnesota (Sherburne, Freeborn counties, Lake Ann in Carver county), Kansas (Wabaunsee, Pottawatomie and Butler counties), Wisconsin, Arkansas, Oklahoma, Illinois, Mississipi, Michigan, New-York, Pennsylvania, Massachussets, Ohio, Nebraska, Indiana",,,
4c98dd812706ab347440ba64f82dc94a,2017-0564-USA,USA,United States of America,Northern America,Americas,"Texas (Justin in Denton, Collin, Rockwall, Lubbock counties, Seymour in Baylor, Dallas – Fort Worth metro area, Houston metro area), Oklahoma (El Reno in Canadian, Oklahoma city metro region, Caddo in Bryan, Cleveland South and East), Kansas (south), Kentucky, Tennessee, Mississippi, Alabama, Georgia, Indianapolis (Marion-IN)",,,
415c11269aa5da02d39bdf199743067b,2017-9550-USA,USA,United States of America,Northern America,Americas,"Upper Midwest, Northern Rockies and parts of the West; North Dakota, South Dakota and Montana.",,,
c26475f16a6c662891845afaa94eca03,2018-0010-USA,USA,United States of America,Northern America,Americas,"Santa Barbara County (Montecito and Carpinteria), Los Angeles County (Burbank), Ventura (California)",,,
1d00945cd752994b7e6be403c730e670,2018-0045-USA,USA,United States of America,Northern America,Americas,"Massachusetts , New Jersey, New York, Connecticut, Maine, New Hampshire, Pennsylvania, Maryland, Rhode Island , South Carolina, Tennessee, Virginia, North Carolina, Georgia",,,
9f09c098e4d46e6282fde9d7e064dfa5,2018-0046-USA,USA,United States of America,Northern America,Americas,"Colorado, PLains and Midwest",,,
2bfceb4c8c5870c9e793094b667b2102,2018-0111-USA,USA,United States of America,Northern America,Americas,"Massachusetts, New York, Virginia, Maryland, New Hampshire, New Jersey, Pennsylvania, Connecticut, Delaware",,,
864c74486fcfcb2612a69f254da012dc,2018-0129-USA,USA,United States of America,Northern America,Americas,"Louisiana, Mississippi, North Carolina, Virginia, Arkansas, Florida, Georgia, Maryland, Michigan , Missouri , New Jersey, New York,Pennsylvania , South Carolina, Texas",,,
2b85d4eb2edf36694eddb45d2fe5b7bf,2018-0130-USA,USA,United States of America,Northern America,Americas,Kauai Isl. (Hawai),,,
faadd85d7ff8ec768decab77b5c462cc,2018-0146-USA,USA,United States of America,Northern America,Americas,Hawaï,,,
215865017be9ede4319880bea849bcba,2018-0160-CAN,CAN,Canada,Northern America,Americas,British Columbia,50.358,-119.241,
00704c1405bf5862b13adb51e97b10d0,2018-0170-USA,USA,United States of America,Northern America,Americas,Southeast,,,
cc40119827b12aa542562cb688074e1b,2018-0195-CAN,CAN,Canada,Northern America,Americas,"Gatineau, Montréal, Joliette, Saint-Hyacinthe, Saint-Jean-sur-Richelieu, Drummondville, Sherbrooke ,Outaouais, Laurentides, Lanaudière, Victoriaville Trois-Rivières, Québec, La Malbaie, Kamouraska, l’Abitibi-Témiscamingue, Saguenay—Lac-Saint-Jean (Quebec)",,,
323f82f84bb3dfef3d9c4c88568b15a2,2018-0206-USA,USA,United States of America,Northern America,Americas,"New York City, Washington DC, Baltimore, Maryland, Texas, Kansas, Colorado, Oklahoma, Missouri, Illinois, Indiana, Iowa, New Jesey, Pennsylvania, Virginia, West Virginia, Massachusetts, Connecticut",,,
786258e0192dbb8c72660ccf1e0242f1,2018-0258-USA,USA,United States of America,Northern America,Americas,"Shasta, Trinity, Mendocino, Lake, Colusa, and Glenn counties (California)",,,
b891363374428c35fb1cb631759d7fbb,2018-0279-USA,USA,United States of America,Northern America,Americas,"Pella, Marshalltown (Iowa); Missouri , Illinois, Indiana, Kansas, Kentucky, Alabama, Arkansas, Georgia, Tennessee, North Carolina, South Carolina, Viriginia, Maryland , Pennsylvania",,,
df4ba6c408dc9a4971aa8d86e60af6cb,2018-0299-CAN,CAN,Canada,Northern America,Americas,Colombie-Britannique,,,
ac4b82eea4807e3c5e02b8100870798b,2018-0331-USA,USA,United States of America,Northern America,Americas,"Wisconsin, Iowa, Minnesota, Missouri, Illinois, Kentucky, Pennsylvania, Arkansas, Ohio, Indiana",,,
ddb35636ae30e84712c389ca83e70cdd,2018-0342-USA,USA,United States of America,Northern America,Americas,"South and North Carolina, Virginia",,,
05ccfc55d4324029b1b0953580b9463e,2018-0344-USA,USA,United States of America,Northern America,Americas,"Colorado, Nebraska, Wyoming",,,
6c1bdd4f6d72772e772bf099672da8fb,2018-0366-CAN,CAN,Canada,Northern America,Americas,Ottawa; Quebec province,,,
d7798f56f012c08b6f5323872f60f654,2018-0373-USA,USA,United States of America,Northern America,Americas,"Florida, Georgia, Alabama, North Carolina, Virginia, Maryland",,,
a6581714e3f6f47f8f193f3f666e088f,2018-0409-USA,USA,United States of America,Northern America,Americas,Butte county (North California),,,
d747517c0d48f0483f6ca590f7b6e183,2018-0419-USA,USA,United States of America,Northern America,Americas,"Bastrop, Burnet, Colorado, Fayette, Hood, Jim Wells, Kerr, Kimble, La Salle, Live Oak, Llano, Mason, McMullen, Nueces, Real, San Patricio, Travis, and Williamson counties",,,
0fb8268aa70762cb280395474729580e,2018-0457-USA,USA,United States of America,Northern America,Americas,"New Mexico, Texas, Iowa, Minnesota, Kansas, Louisiana, Tennessee",,,
9450a23ba32a1482a55e9f26fa646c17,2018-0468-USA,USA,United States of America,Northern America,Americas,"Thousand Oaks, Oak Park, Westlake Village, Agoura Hills, West Hills, Simi Valley, Chatsworth, Bell Canyon, Hidden Hills, Malibu and Calabasas (California)",,,
412fa159f76db352c49aa1bd02210910,2018-9476-USA,USA,United States of America,Northern America,Americas,Nationwide,,,
92f29419beeb0c68c641682ccbe4a0a5,2019-0007-USA,USA,United States of America,Northern America,Americas,"Missouri, Illinois, Iowa, Kansas, Nebraska, Washington DC, Virginia, Colorado, North, South Carolina",,,
689c40ff1134990552592f3bbdff6a7d,2019-0045-USA,USA,United States of America,Northern America,Americas,Midwest and Northeast,,,
4241cc66c2b78e700b068fc6c8df66f4,2019-0046-USA,USA,United States of America,Northern America,Americas,Upper midwest,,,
db99a3dc9f767ac375adbd5d99e47043,2019-0081-USA,USA,United States of America,Northern America,Americas,"Alabama, Georgia, South Carolina, Florida, Mississippi,",,,
477d8e6f32c00cfbecb60608534164f6,2019-0086-USA,USA,United States of America,Northern America,Americas,"Amador, Glenn, Lake, Mendocino, Sonoma, Humboldt counties (California)",,,
961ba5555e6d58a36a47d5697f75a452,2019-0089-USA,USA,United States of America,Northern America,Americas,"Tennessee, Mississippi, Alabama, Illinois, Indiana, Ohio, Connecticut, Maryland, Massachusetts, New Jersey, New-York, Pennsylvania, Virginia, West Virginia states",,,
a0620f2c2a2480dbf853ba3aebd8b813,2019-0090-USA,USA,United States of America,Northern America,Americas,Northern California,,,
7125af2b1e9eaf2292b939eabc47a7be,2019-0116-USA,USA,United States of America,Northern America,Americas,"Nebraska, Iowa, Wisconsin, Missouri, Kansas, Illinois, Minnesota, South Dakota, North Dakota, Michigan",,,
70a194c9d2d9b61953d6bdb7de41c737,2019-0160-USA,USA,United States of America,Northern America,Americas,"Robertson, Angelina, Houston and Cherokee Counties (Texas); Louisiana, Arkansas, Mississippi, Alabama, Georgia, North Carolina, Ohio, Pennyslvania",,,
3f962156c8ff911ae920b68b86c6e781,2019-0171-CAN,CAN,Canada,Northern America,Americas,"Ontario, Nouveau-Brunswick, Quebec",,,"St Lawrence, St John rivers"
b77454f599e129330939364a732f1ea9,2019-0184-USA,USA,United States of America,Northern America,Americas,"Texas, Lousiana states",,,
2471f4ab973ca848989263225dfbd8c2,2019-0250-USA,USA,United States of America,Northern America,Americas,"Jefferson city, Golden (Barry county), Carl Junction (Jasper county), Missouri state",,,
57f65d6252736c855ea666fd1f57e424,2019-0306-USA,USA,United States of America,Northern America,Americas,Ridgecrest (Califronia),35.77,-117.599,
bce224d18459caff00b17a24d1ae27e6,2019-0307-USA,USA,United States of America,Northern America,Americas,"Lincolnton region (Lincoln County, North Carolina)",,,Catawba river
9b5214ee2846fb2f4cf591f4ad342510,2019-0335-USA,USA,United States of America,Northern America,Americas,"Louisiana, Mississippi, Arkansas, Oklahoma, Great Lakes region",,,
9106e36715c164fb6377cdd9ad3dcca5,2019-0412-USA,USA,United States of America,Northern America,Americas,"Florida, Georgia, South Carolina, North Carolina, Virginia",,,
cf00f0fadea38a20eb620ec10f753a23,2019-0417-USA,USA,United States of America,Northern America,Americas,Texas,,,
74c90f73a3097f475c937a5d1a0ad713,2019-0484-USA,USA,United States of America,Northern America,Americas,"Texas, Arkansas, Oklahoma, Missouri, Louisiana,Tennessee.",,,
09d5ec2cab8128c6c6d946d0727eb40c,2019-0513-USA,USA,United States of America,Northern America,Americas,Los Angeles and Riverside counties (California),,,
f2c3940f8174b873dd4411d648cbf6f7,2019-0517-USA,USA,United States of America,Northern America,Americas,"Los Angeles, San Bernardino, Ventura, Sonoma Counties (California)",,,
326b8aa6db32966ade871d021765d835,2019-0532-CAN,CAN,Canada,Northern America,Americas,"Bromont, Sherbrooke (Quebec); Ontario",,,
ebbafff48685c5bfa93b024befa81001,2019-0593-USA,USA,United States of America,Northern America,Americas,"Pacific Northwest, Rockies, Northern Plains, Upper Midwest, and the Northeast",,,
baecaee88d50cc0ef4d9534dd0d941a1,2019-0624-USA,USA,United States of America,Northern America,Americas,"Missouri, Nebraska, Indiana, Kansas, Louisiana, Mississippi, Alabama, Florida, Georgia",,,
92cd6af29c20c6fb1c6025656444e826,2020-0011-USA,USA,United States of America,Northern America,Americas,"Texas, Oklahoma, Missouri, Arkansas, Louisiana, Mississippi, Alabama, Tennessee, Kentucky, Georgia states",,,
8bc9b499e6128173a447605c8037499e,2020-0082-USA,USA,United States of America,Northern America,Americas,"Nashville (Tennessee), Kentucky, Missouri, Mississippi, Georgia, Texas Oklahoma, Illinois, Indiana, Ohio, Arkansas, West Virginia, Pennsylvania",,,
fd035fa3af67cee9fa1f2cf3418fd776,2020-0089-USA,USA,United States of America,Northern America,Americas,"Mississippi, Tennessee",,,Pearl River
380c6ccc852d1b72290749585ec5101b,2020-0148-USA,USA,United States of America,Northern America,Americas,"Louisiana, Texas, Mississippi, South Carolina, Georgia, Tennessee, Arkansas, North Carolina, Alabama",,,
a9da1122fdf226fac48237a66f976380,2020-0167-USA,USA,United States of America,Northern America,Americas,"Texas, Oklahoma, Louisiana, Mississippi, Alabama, Georgia, Florida, Virginia",,,
428c10c0ddbca98b90085f45ce4f5792,2020-0190-USA,USA,United States of America,Northern America,Americas,"Illinois, Iowa, Wisconsin, Michigan, Indiana, Ohio, Kentucky, Arkansas, Tennessee, Missouri",,,
fc4607c7ec2dfe0ee39b55a51ca4bcad,2020-0191-CAN,CAN,Canada,Northern America,Americas,Alberta,,,"Athabasca, Clearwater Rivers"
3a680942a35c51b66157e0d702a9e401,2020-0212-USA,USA,United States of America,Northern America,Americas,"Midland Country, Edenville, Sanford (Central Michigan State)",,,
400ef2cb7bd2de8a9004b82a3acfef3a,2020-0219-USA,USA,United States of America,Northern America,Americas,"errebonne, Plaquemines, Lafourche Parishes (Louisiana)",,,
7fb10db5ac5e0af7b2eac0fa51e45124,2020-0238-USA,USA,United States of America,Northern America,Americas,"Oklahoma, Missouri, Arkansas, Tennessee; Kansas, South Carolina",,,
a28edc64aec578763928a98b35c024fb,2020-0266-CAN,CAN,Canada,Northern America,Americas,Calgary (Alberta),,,
350e3ddc48507add5a434f7cc98dc943,2020-0312-USA,USA,United States of America,Northern America,Americas,"North Carolina, South Carolina, New York, Maryland, Delaware, New Jersey, Connecticut, Florida, Virginia, Pennsylvania, New Hampshire",,,
cf00f0fadea38a20eb620ec10f753a23,2020-0316-USA,USA,United States of America,Northern America,Americas,Texas,,,
4959b3c384e1cafec5c2f91f93f3638c,2020-0376-USA,USA,United States of America,Northern America,Americas,"Louisiana, Texas, Arkansas, Mississippi",,,
efd0ff6b5dc7509e98d981416ca9fb7e,2020-0412-USA,USA,United States of America,Northern America,Americas,"Louisiana, Texas, Mississippi, Georgia, North and South Carolina",,,
9f21abaf9f936d19cb9968ba68f86890,2020-0438-USA,USA,United States of America,Northern America,Americas,"Alabama, Florida",,,
583f6c15ebdcffd50b6019e3bf6202a1,2020-0441-USA,USA,United States of America,Northern America,Americas,"Californie, Washington, Oregon, Colorado",,,
4332a41a01b7aaa7d9b624c520d90d8d,2020-0474-USA,USA,United States of America,Northern America,Americas,"Florida, North Carolina, Virginia",,,
b1b09c1938155a0a42382721266103ec,2020-0483-USA,USA,United States of America,Northern America,Americas,"Louisiana, Mississippi, Alabama, northern Georgia, south and North Carolinas",,,
ac81319fe2bf1ee129338e676e22ee61,2020-0538-USA,USA,United States of America,Northern America,Americas,"Illinois, Wisconsin, North Carolina, Virginia, Maryland",,,
3f445fcef256b4241d06a534612068c3,2020-0580-USA,USA,United States of America,Northern America,Americas,"Iowa, Illinois, Minnesota, Indiana and Ohio",,,
dd4dcd211652f3d880413ee29290c161,2020-0582-USA,USA,United States of America,Northern America,Americas,"Missouri, Oklahoma, Texas, Illinois, Indiana, Ohio, Arkansas, Kentucky, Tennessee, West Virginia, Pennnsylvania",,,
3522424acbf461d683a664486a3114ea,2020-0583-USA,USA,United States of America,Northern America,Americas,"Oklahoma, Arkansas, Indiana, Tennessee, Alabama, Georgia, Florida, South Carolina, Texas, Illinois, North Carolina",,,
3c61b08cb6bae5ccc63d0a0821b2aeff,2020-0584-USA,USA,United States of America,Northern America,Americas,South Texas,,,
9bbeb545db3aa19142a5fb454a5382cd,2020-9585-USA,USA,United States of America,Northern America,Americas,West and central states,,,
4b1446ef2f1a1b7b9238a2c50f695415,2021-0011-USA,USA,United States of America,Northern America,Americas,Oregon and Washington States,,,
1e609507f58d82f7ca0e9c694c420f5e,2021-0037-USA,USA,United States of America,Northern America,Americas,Jefferson county (Alabama),,,
1b4715ea815665dc219ab9bbf1060f24,2021-0043-USA,USA,United States of America,Northern America,Americas,"San Mateo, Santa Cruz and Monterey Counties (California)",,,
c87dad8995a9806a609bcfb3b4713cc1,2021-0059-USA,USA,United States of America,Northern America,Americas,"New York, New Jersey, Pennsylvania, Virginia, Maine, Washington, Boston (Suffolk, Massachusetts)",,,
e78afd8cccd0f047902f82f126b7d8e5,2021-0096-USA,USA,United States of America,Northern America,Americas,"North Carolina, Oklahoma, Arkansas, Missouri, Illinois, Kentucky, Tennessee, Louisiana, Mississippi, Colorado, Oregon, Washington, Nebraska, Texas",,,
43bf7d5e293d0591bb901c673011f29f,2021-0117-USA,USA,United States of America,Northern America,Americas,"Todd, Christian, Breathitt, Lee and Magoffin Counties (Kentucky); Tennessee, West Virginia, Arkansas, Ohio, and Maryland",,,
fbc9554d1a159722f5c75dff841aa89d,2021-0150-USA,USA,United States of America,Northern America,Americas,"Hawai‘i, Maui, Kalawao, Kaua‘i, Honolulu (Oahu Island, Hawaii)",,,
434ef8888accd4f1178f59e6c90f2ae2,2021-0166-USA,USA,United States of America,Northern America,Americas,"Louisiana, Alabama,Mississippi",,,
75e6ab8f7b774ac6f056abbfd7fad88b,2021-0178-USA,USA,United States of America,Northern America,Americas,"Calhoun, Bibb, Jefferson, Shelby and Calhoun Counties (Alabama); Mississippi; Coweta and Fayette Counties (Georgia); Tennessee; Kentucky",,,
af6d0b3048182247b73c2c5189b180e2,2021-0193-USA,USA,United States of America,Northern America,Americas,"Davidson, Rutherford, Sullivan, Wilson counties; Nashville Metropolitan Region, Lower Mississippi and Tennessee Valley (Tennessee); Arkansas, Alabama, Georgia, Mississippi, South Carolina, North Carolina, Virginia, Pennsylvania, Maryland, New Jersey",,,
5465799a45faa0aea1283edf76cc2246,2021-0199-USA,USA,United States of America,Northern America,Americas,"Louisiana, Florida, Mississippi, Alabama",,,
42632f9c5cebff8afc929d9c81307eac,2021-0211-USA,USA,United States of America,Northern America,Americas,Southern Louisiana and the Gulf Coast,,,
616902890e1878d24542a59f1a92f73a,2021-0250-USA,USA,United States of America,Northern America,Americas,"Burnet, Williamson, Travis Counties (Texas)",,,
81732bb61a313ea67810336c1ed24a5c,2021-0251-USA,USA,United States of America,Northern America,Americas,"Texas, Oklahoma",,,
c0dbffeb4d92a84afdc17178de9ba8a6,2021-0266-USA,USA,United States of America,Northern America,Americas,"Alabama, Louisiana, Mississippi, Tennessee, Georgia, Texas, Virginia, Arkansas, South Carolina, North Carolina",,,
f06706507847459983782bd9ab742cb4,2021-0273-USA,USA,United States of America,Northern America,Americas,East Baton Rouge Parish (eastern Louisiana); Lake Charles City (south-western Louisiana),,,
255d078d789c676d3c86fc7af3563b21,2021-0305-USA,USA,United States of America,Northern America,Americas,"Near Greenville, Butler county (Alabama); Louisiane, Mississippi, Floride",,,
5156b3cf7ce22c6fdcce66b50fb385df,2021-0335-USA,USA,United States of America,Northern America,Americas,"Bolivar, Sunflower, Panola, and Tallahatchie Counties (Mississippi State); Arkansas, Texas",,,
cc2d180bfa9e7aa647297d5a80b33375,2021-0356-CAN,CAN,Canada,Northern America,Americas,Montreal City area (Quebec),,,
eac4555cdbc46a8d5966c474bf916707,2021-0357-USA,USA,United States of America,Northern America,Americas,"Pinas and Gila counties (Arizona); Montana, Utah",,,
a2ac5d265b0762950cf5b760773ecd24,2021-0367-CAN,CAN,Canada,Northern America,Americas,Lytton (British Columbia),,,
215865017be9ede4319880bea849bcba,2021-0369-CAN,CAN,Canada,Northern America,Americas,British Columbia,,,
78b089126b76f618de33688f7fc4faa6,2021-0373-USA,USA,United States of America,Northern America,Americas,"California, Georgia, Florida, North Carolina, South Carolina",,,
9b0763a6a4549bd43cf3257a4d34c41c,2021-0390-USA,USA,United States of America,Northern America,Americas,"Oregon, Washington, Northern California, Idaho, Western Nevada",,,
474dbc6d1d71a48be8fc39468c1fed60,2021-0410-USA,USA,United States of America,Northern America,Americas,"Arizona, California, Oregon",,,
8308e09d2585ff9d3112d7e3645fa099,2021-0433-USA,USA,United States of America,Northern America,Americas,Plumas County (California),,,
87ba71d7b869937316d6ee64084cf7be,2021-0442-USA,USA,United States of America,Northern America,Americas,Albuquerque (New Mexico); Larimer County (Colorado); Arizona,,,
42d847df370652d16b2ddf81e31ba974,2021-0487-USA,USA,United States of America,Northern America,Americas,"Arizona, Missouri, Nebraska, Iowa, South Dakota, North Dakota, New Mexico, Texas",,,
5cad1d1d6761744119dc829b6f84fdae,2021-0488-USA,USA,United States of America,Northern America,Americas,"Utah, Nevada, Arizona, New Mexico",,,
373d5289704d2d2099a6fed05aa49461,2021-0526-USA,USA,United States of America,Northern America,Americas,El Dorado County (California),,,
e55ad2b82ae0acca4352953beb1a8643,2021-0531-USA,USA,United States of America,Northern America,Americas,"Rhode Isl., Connecticut, Vermont, New York, New Jersey states",,,
7683da3328b66bd5979aab006e8b7858,2021-0532-USA,USA,United States of America,Northern America,Americas,"Transylvania, Haywood, Swain counties (North Carolina); Florida",,,Pigeon river
ff930823305328e11f12bcc837666143,2021-0533-USA,USA,United States of America,Northern America,Americas,"Dickson, Humphrey, and Hickman Counties (Tennessee)",,,
27ba48648007a3c94ce623e7fe142dde,2021-0551-USA,USA,United States of America,Northern America,Americas,"Louisiana, New York, New Jersey, Maryland, Connecticut, Virginia, Pennsylvania, Delaware",,,
65d4fabd79ea7f4c8610b3145944ca0d,2021-0562-USA,USA,United States of America,Northern America,Americas,Utah and Colorado,,,
40071bcaf02053e58746639d3a0a9752,2021-0565-USA,USA,United States of America,Northern America,Americas,"Wisconsin, Illinois, Indiana, Michigan, Ohio, Missouri",,,
9937079cc12d3cb877f983f812862474,2021-0566-USA,USA,United States of America,Northern America,Americas,El Paso (Texas); Gila Bend (Arizona),,,
bf62a4f21d9fc911d859d5b89d5be8c7,2021-0583-USA,USA,United States of America,Northern America,Americas,"Texas, Louisiana",,,
e314554495d8899a4443d77723c98b7e,2021-0626-USA,USA,United States of America,Northern America,Americas,Shasta County (north California State),,,
628c5c17a3ef70c2d08995d4ee4320da,2021-0733-USA,USA,United States of America,Northern America,Americas,"Jefferson, Shelby, Marshall, Escambia, Baldwin counties (Alabama)",,,
237c6cc7cdcc7258b05079a3d3f373ab,2021-0741-CAN,CAN,Canada,Northern America,Americas,"Fraser Valley, Okanagan-Similkameen, Thompson-Nicola,Vancouver (British Columbia)",,,
f34c8a0ab158f8a8889a4789682fdba2,2021-0741-USA,USA,United States of America,Northern America,Americas,Whatcom County (northern Washington State),,,
6e81c7f0700bce0bf4a9c48be1b86fb9,2021-0784-USA,USA,United States of America,Northern America,Americas,"Big Island, Maui, Molokai, Oahu Island (Hawai)",,,
23018ae28ebbacdfe464dc38e5c904be,2021-0797-USA,USA,United States of America,Northern America,Americas,"Graves County, Caldwell, Hopkins, Muhlenberg, Ohio, Warren, Taylor (Kentucky); Saint Charles (Missouri); Obion (Tennessee); (Mississippi); Craighead, Poinsett, Mississippi (Arkansas); Madison (Illinois)",,,
1c764e02feb81a838d8e6a875911fc9f,2021-0815-USA,USA,United States of America,Northern America,Americas,"Russell, Ellis, Lyon (Kansas); Floyd (Iowa); Missouri; Prowers, El Paso (Colorado); Nebraska; Freeborn (Minnesota); Wisconsin; Taos (New Mexico)",,,
6407d6bbfce354ec5f46f57ebdfc9e13,2021-0832-USA,USA,United States of America,Northern America,Americas,"Louisville, Superior (Boulder county, Colorado)",,,
412fa159f76db352c49aa1bd02210910,2021-9846-USA,USA,United States of America,Northern America,Americas,Nationwide,,,
2170928f7d65a14e484514fbbb7a95bd,2022-0007-USA,USA,United States of America,Northern America,Americas,"Maryland, Virginia, New Jersey, Washington D.C., Missouri, Tennessee, Georgia",,,
03865eee70dfa957e9e6da49469b1274,2022-0080-USA,USA,United States of America,Northern America,Americas,"Hale, Sumter, Elmore Counties (central Alabama); Rockies, Plains, Mid-Atlantic, Northeasr",,,
0bba78cdc7841380d2e1d6581dad34cb,2022-0126-USA,USA,United States of America,Northern America,Americas,"Madison county (Iowa state); Illinois, Indiana, Ohio, Arkansas, Kentucky, New Hampshire, Pennsylvania, Maryland, New York, New Jersey, New England",,,
454c523343b1ba955815aecba3c9f331,2022-0132-USA,USA,United States of America,Northern America,Americas,"Calhoun and Gulf Counties (Florida); Reno, Harvey Counties (Kansas)",,,
aba05562e8ea4be61e66d56a61821cab,2022-0157-USA,USA,United States of America,Northern America,Americas,"Bastrop, Cass, Cooke, Grayson, Guadalupe, Houston, Jack, Madison, Marion, Montague, Nacogdoches, Panola, Rusk, Upshur, Williamson, and Wise counties (Texas); Oklahoma, Louisiana; Adams, Attala, Clay, Copiah, George, Hinds, Holmes, Jefferson, Kemper, Lauderdale, Madison, Smith, Warren, Oktibbehaand Yazoo Counties (Mississippi); Perry, Chilton, Bibb, Shelby, and Talladega Counties (Alabama); Ohio, South and North Carolina",,,
b90bacf8d45f84e7e3b103e0f18f6119,2022-0185-USA,USA,United States of America,Northern America,Americas,"Washington County (Arkansas); Shelby, Chilton, Bibb Counties (Alabama); Iowa, Kansas, Missouri; Newton county (Texas); Lousiana; Bolivar, Calhoun, Hinds, Warren, Yazoo Counties (Mississippi); Trigg County (Kentucky); Washington County (Florida); Armstrong County (Pennsylvania)",,,
d0a6a79dcfb4763cb3771b8b0f654579,2022-0193-USA,USA,United States of America,Northern America,Americas,"Dallas Fort, Johnson, Collin, Smith counties (Texas); Marengo County (Alabama); Lee, Houston, Berkeley Counties (Georgia); Allendale county (South Carolina); Covington, Jefferson Davis, Lauderdale, Newton, Wayne Counties (Mississippi); Florida",,,
fc8f51be6fbfe63d065063b5963f60fb,2022-0212-USA,USA,United States of America,Northern America,Americas,"Williamson and Bell Counties (Texas); Pocahontas County (Iowa); Atoka and Coal counties (Oklahoma); Faulkner, Franklin, Logan, Prairie, Sebastian, and White Counties (Arkansas); Mower County (Minnesota); Jefferson, Shelby, Hardin Counties (Kentucky); Louisiana, Mississippi, Alabama, Tennessee, Indiana",,,
7c117031b847ab50bba00d3883e4f22d,2022-0215-USA,USA,United States of America,Northern America,Americas,"Lincoln, San Miguel Counties (New Mexico)",,,
74deda42558bd0756f579f60ad4da679,2022-0227-USA,USA,United States of America,Northern America,Americas,"Alabama, Arkansas, Florida, Mississippi,Oklahoma, and Texas",,,
c9fe8f6ff010a470b2a53dc0e6786764,2022-0244-CAN,CAN,Canada,Northern America,Americas,"Ontario, Manitoba",,,
a6b87f2e8d6a6d68e1d1057283bada74,2022-0244-USA,USA,United States of America,Northern America,Americas,"Nebraska, Kansas, Missouri, Dakota, Virginia, North Carolina, Texas, Montana, Minnesota",,,
57a21feb116e2f150656bc90bfbcdf1a,2022-0246-USA,USA,United States of America,Northern America,Americas,"Mora, Colfax, Lincoln, San Miguel, Valencia Counties (New Mexico); Colorado, Nebraska",,,
1be133b5ab477b790c4cf94da8f883a3,2022-0261-USA,USA,United States of America,Northern America,Americas,Andover Town (Butler County); Wichita City (Sedgwick County) - Kansas; Texas; Oklahoma,,,
c26f0250037f5f53aaaac3eb39673b70,2022-0266-CAN,CAN,Canada,Northern America,Americas,Southern Manitoba Province,,,
a642743a07145cc0482196591634c593,2022-0266-USA,USA,United States of America,Northern America,Americas,North Dakota and northern Minnesota (central-northern USA),,,
347c842fa8f7d0aab59132596beac9e5,2022-0284-USA,USA,United States of America,Northern America,Americas,"Texas, North Carolina, West Virginia, Minnesota, Wisconsin, Oklahoma, Ohio, Pennsylvania",,,
c35b5ebd12aa49c9af171cab1d56b68a,2022-0304-CAN,CAN,Canada,Northern America,Americas,"Manitoba, northern Alberta and Northwest Territories",,,
8b9772ead080c724ef5561f82105ae97,2022-0325-CAN,CAN,Canada,Northern America,Americas,"Toronto, Ottawa, Montreal, Ontario, Quebec",,,
8584eb68298f1b4a7b6c36fcce133a05,2022-0325-USA,USA,United States of America,Northern America,Americas,"Minnesota, Kentucly, Michigan, Missouri, Illinois, Wisconsin",,,
0b3967d1189fa83ac1e92e0cd5add56d,2022-0361-USA,USA,United States of America,Northern America,Americas,"Yellowstone National Park (Wyoming, Montana and Idaho states)",,,
2ba0643a08b2e906f0b9f1cb0e39be2c,2022-0480-USA,USA,United States of America,Northern America,Americas,"Kentucky, Missouri",,,
b3ea4071e81d5c5625ddece272f627fd,2022-0486-USA,USA,United States of America,Northern America,Americas,Siskiyou County (California),,,
7395001eb221df27fe1f105064dd13ad,2022-0603-CAN,CAN,Canada,Northern America,Americas,"Nova Scotia, Prince Edward Island, Newfoundland, and Quebec",,,
04c4f05fc47ed6d51982f744a8af9ef6,2022-0614-USA,USA,United States of America,Northern America,Americas,Charlotte and Lee Counties (Florida Peninsula); North Carolina,,,
1df69b942b3e4b89a43b58924a2ae138,2022-0734-USA,USA,United States of America,Northern America,Americas,"Bahamas, Florida",,,
00be8b56d45d33ba2441add34f4f2b93,2022-0735-USA,USA,United States of America,Northern America,Americas,"Texas, Arkansas and Oklahoma",,,
6fd34895658537ec64df9c0714ca9317,2022-0808-USA,USA,United States of America,Northern America,Americas,Humboldt County (California),40.525,124.423,
574f2eba43d72e87c61768739a774c8c,2022-0811-USA,USA,United States of America,Northern America,Americas,"Louisiana, Oklahoma, Texas, Alabama, Mississippi, Georgia, Florida states",,,
215865017be9ede4319880bea849bcba,2022-0818-CAN,CAN,Canada,Northern America,Americas,British Columbia,,,
63652c440aa684c9a8af185d5604996d,2022-0818-USA,USA,United States of America,Northern America,Americas,"South Dakota, Oregon, Washington, Idaho, New York, Oklahoma, Kentucky, Colorado, Connecticut, Kansas, Maryland, Missouri, North Carolina, West Virginia, Wisconsin, Georgia, New Hampshire, Ohio, Tennessee, Vermont states",,,
f730fd0ff5f819eaf7e27ea59b15949b,2022-0863-USA,USA,United States of America,Northern America,Americas,"Sacramento City, Santa Cruz, Calaveras, San Mateo, Ventura, Santa Barbara, El Dorado, Monterey, Santa Clara, Alameda, San Benito, Merced, Mono, Stanislaus, Mendocino, Humboldt (California)",,,
c24544d0ea550057f0455a9ce78699e8,2022-9209-USA,USA,United States of America,Northern America,Americas,"Nation wide; Arizona, Nevada, California, Oregon and Texas",,,
402e5210d17a7d848446b79833165ba9,2023-0032-USA,USA,United States of America,Northern America,Americas,Alabama and Georgia,,,
06d21fb4385b7f1c0b18619646a0e13b,2023-0052-CAN,CAN,Canada,Northern America,Americas,,,,
7165c62b36e2b7a3065a77164adb8428,2023-0052-USA,USA,United States of America,Northern America,Americas,"Texas, Arkansas, Louisiana, Oklahoma, Tennessee. Mississippi",,,
550aa473491d3a516334739ab4bd8d27,2023-0122-USA,USA,United States of America,Northern America,Americas,"Texas, Oklahoma, Mississippi, Kentucky, Arkansas, Alabama, Tennessee, Louisiana, Indiana and Ohio",,,
b6820b7f638931d32ed5e43cefc56dc3,2023-0135-USA,USA,United States of America,Northern America,Americas,"Monterey, Merced and Tulare Counties (California); Nevada",,,
116501842fa588876bb9014efccb270b,2023-0176-USA,USA,United States of America,Northern America,Americas,"Rolling Fork, Silver City, Winona, Sharkey, Smithville, Amory and Montgomery (Mississippi); Alabama, Georgia, Tennessee",,,
a7e60f4d1c5ea9142f372b6128304311,2023-0192-USA,USA,United States of America,Northern America,Americas,"Memphis (Tennessee); Owen and Sullivan counties (Indiana); Arkansas, Mississippi, Alabama, Illinois; Sussex county (Delaware); Oklahoma, Iowa, Kentucky, Ohio, Missouri, Kansas; Pennsylvania",,,
bfdc95d77da93b23923c90512c73e3c2,2023-0206-USA,USA,United States of America,Northern America,Americas,"Bollinger County (Missouri); Illinois, Kentucky, Iowa, Indiana, Ohio, Michigan",,,
812a49853cb84b8f6f069819fc6ab679,2023-0225-USA,USA,United States of America,Northern America,Americas,"Pembroke Pines, Dania Beach and Fort Lauderdale (Broward County, Hollywood, Florida)",,,
9856228eaf3997cf8023b6d70618adfb,2023-0239-USA,USA,United States of America,Northern America,Americas,"Arkansas, Florida, Illinois, Kansas, Louisiana, Missouri, Nebraska,Texas, Oklahoma, Iowa",,,
000925760d1df376085025be17ed185f,2023-0253-USA,USA,United States of America,Northern America,Americas,"Dickens, Comanche, McLennan, Nolan, Swisher, Taylor, Floyd (Texas); St. Lucie, Nassau, Brevard, Hillsborough, Sumter, Broward, and Indian River (Florida); Effingham, Bryan, Wayne, Terrell, Chatham (Georgia); Oklahoma",,,
92ec18492b7e1041d04cfdc723715799,2023-0272-CAN,CAN,Canada,Northern America,Americas,"Baie-Saint-Paul (Charlevoix Region), Saint-Côme and Sainte-Émélie-de-l'Énergie (Lanaudière Region, south-western Quebec).",,,
2a13fbb56c838ec5031687077c7cbd57,2023-0280-CAN,CAN,Canada,Northern America,Americas,"Alberta, British Columbia, Nova Scotia, Ontario, Québec, Saskatchewan",,,
f19177042e1d63ca8f921e28ed851a0d,2023-0288-USA,USA,United States of America,Northern America,Americas,"Texas, Nebraska, Missouri, Kansas, Colorado, Illinois, Iowa, Indiana, Kentucky, Tennessee, South Carolina",,,
2c53bcaeed4aa48b9489cffb1134d617,2023-0324-USA,USA,United States of America,Northern America,Americas,"Texas, Oklahoma, Kansas, Louisiana, Michigan, Ohio, Mississippi, Nebraska, Wyoming, Colorado and Arkansas",,,
07d44223e3bcb5e7951ceb032870bcbb,2023-0332-USA,USA,United States of America,Northern America,Americas,"Dallas, Tarrant, Denton, Ochiltree counties (Texas); Louisiana, Mississippi, Alabama, Georgia, Tennessee, Arkansas, South Carolina and Florida",,,
d270d9ee2b741db99292bbf0f6936191,2023-0364-USA,USA,United States of America,Northern America,Americas,"Texas, Louisiana, Florida, Arizona, New Mexico, Kansas, Oklahoma, and southern California",,,
9d459badc0a13737f647a11e1824420b,2023-0370-USA,USA,United States of America,Northern America,Americas,"Montana, Wyoming, South Dakota, Nebraska, Minnesota, Ohio, Tennessee, Oklahoma, Wyoming, Colorado, Indiana, Kentucky, Arkansas",,,
b1723ac5818e985825f32c2c67a364da,2023-0426-USA,USA,United States of America,Northern America,Americas,"Vermont, New York, Connecticut, Pennsylvania, Massachusetts, New Jersey, New Hampshire, Missouri, Illinois, Kentucky,Tennessee",,,
045ec5c39f159779e1ef86a0e98527f9,2023-0465-CAN,CAN,Canada,Northern America,Americas,"East and West Hants Regional Municipality, Halifax Regional Municipality, Lunenburg and Queens counties in southern Nova Scotia",,,
d51121cee49444e354098f174a76f92b,2023-0524-USA,USA,United States of America,Northern America,Americas,Maui and Kula City (Hawai),,,
eacf3b9b78c7b7cfacb460fc9c54fcc7,2023-0534-USA,USA,United States of America,Northern America,Americas,Spokane County (eastern Washington State),,,
1da15d3f6ed04802763d554c1f9781c4,2023-0565-USA,USA,United States of America,Northern America,Americas,"Tampa, St. Petersburg, Sarasota, Tarpon Springs, Fort Myers Naples (Florida); Brooks and Lowndes Counties (Georgia); Mt. Pleasant, Edisto Beach, and Folly Beach (South Carolina); Whiteville, Wilmington, Outer Banks (North Carolina)",,,
594a861d801bdc0dba97c72066fc5f1a,2023-0651-USA,USA,United States of America,Northern America,Americas,"New York city; New Jersey, Connecticut, Texas, Oklahoma, and Arkansas",,,
0d750cf80791811848040406f9427cdf,2023-0656-USA,USA,United States of America,Northern America,Americas,"Nebraska, Texas, Oklahoma, Missouri, and Kentucky",,,
92c52028060cbc6d57abe7f3bb5bda74,2023-0785-USA,USA,United States of America,Northern America,Americas,Portland City area (Oregon State); Snohomish and Wahkiakum Counties (Washington State),,,
b0b6ebc0e5fd7339290722d98cd5b3d6,2023-0826-USA,USA,United States of America,Northern America,Americas,"Nashville City, Davidson County; Clarksville City, Montgomery County in (Tennesee state); Louisiana; Connecticut",,,
0dd8711cc0890dc440217aec2da96e48,2023-0843-USA,USA,United States of America,Northern America,Americas,"Massachusetts, Maine, New Jersey, New York, Pennsylvania and South Carolina",,,Passaic River
3b480bcd69bd97f7723097e6d57bc007,2023-9868-USA,USA,United States of America,Northern America,Americas,"Texas, Louisiana, Oklahoma, Kansas, Illinois, Missouri, Nebraska, Washington, Oregon, Montana",,,
9b4c8af0f922033a9d7b1af5a11b0aff,2024-0004-USA,USA,United States of America,Northern America,Americas,"New Mexico, Colorado, Kansas, Nebraska, South Dakota, and Iowa; Panama City and Jackson County (Florida), Cottonwood (Alabama), Bamberg (South Carolina), Catawba County (North Craolina).",,,
93f7267310a2874cdefdcff35effd4d4,2024-0005-USA,USA,United States of America,Northern America,Americas,"Pennsylvania, Massachusetts, New York, Oregon, Maine, Mississippi, Tennessee Arkansas, Illinois, Wisconsin, Washington, Kentucky, New Jersey, Louisiana states.",,,
6ad7ba8954630637a8f6595fa856d674,2024-0062-USA,USA,United States of America,Northern America,Americas,"Los Angeles, Monterrey, Santa Barbara, Ventura, San Diego, Santa Clara, San Mateo, Santa Cruz, Sutter and Sacramento (California)",,,
2b19fce02e77429366192f7c6d64f63b,2024-0079-USA,USA,United States of America,Northern America,Americas,"New Mexico, Colorado, Oklahoma, Lousiana, Texas, Pennsylvania, New Jersey, New York, Connecticut., Mississippi, Wisconsin, Massachusetts, New Hampshire",,,
81732bb61a313ea67810336c1ed24a5c,2024-0126-USA,USA,United States of America,Northern America,Americas,"Texas, Oklahoma",,,
53483dca6647cac7936b55d57ca3ff4e,2024-0173-USA,USA,United States of America,Northern America,Americas,"Ohio, Indiana, Kentucky, Kansas, Oklahoma, Illinois and Arkansas",,,
f8fe214c79bb47e8232545b39b221dc2,2024-0193-USA,USA,United States of America,Northern America,Americas,"California, Maine, Great Lakes, New England, Oklahoma, Ohio, West Virginia, Kentucky, Tennessee, Georgia, Pennsylvania, New Hampshire, New York, New Jersey, Massachusetts",,,
dadeb0cefb215d26afd818e99a68873e,2024-0205-USA,USA,United States of America,Northern America,Americas,"Texas, Louisiana, MIssissippi, Florida, Colorado, Nebraska, and Wyoming",,,
372f29215b271ecd31c93f19b0b5475b,2024-0266-USA,USA,United States of America,Northern America,Americas,"Oklahoma, Iowa, Nebraska, Texas, Kansas, Missouri, Michigan, Tennessee, North and South Craolinas",,,
c19770c600c511fbec1e4ae263362109,2024-0288-CAN,CAN,Canada,Northern America,Americas,"Fort Nelson, Carpenter Lake, Fontas, and Doig River First Nation reserve (British Columbia); Alberta, Manitoba Provinces",,,
541c645f993aaf354904f349c96b043f,2024-0307-USA,USA,United States of America,Northern America,Americas,"Houston (Texas); Kansas, Oklahoma, Missouri, Iowa, Wisconsin, Illinois, Nebraska",,,
1f1c626d6acac3d55420de912e10ae2d,2024-0314-USA,USA,United States of America,Northern America,Americas,Greenfield (Iowa state),,,
6b107dd4d698da63b6fcdaad1736d110,2024-0340-USA,USA,United States of America,Northern America,Americas,"Arkansas, northern Texas, eastern Oklahoma, Kentucky, Alabama, Colorado, Missouri, Illinois",,,
ad34726e81611b6547af8e7237b5eef2,2024-0351-USA,USA,United States of America,Northern America,Americas,"Texas, Colorado",,,
e8feb1f6753e2fa2fe030544caf079dc,2024-0403-USA,USA,United States of America,Northern America,Americas,"Otero and Lincoln Counties (New Mexico); California, Washington states",,,
05e3826914002e24919a2711c098e311,2024-0422-CAN,CAN,Canada,Northern America,Americas,Nouvelle Ecosse,,,
bf62a4f21d9fc911d859d5b89d5be8c7,2024-0422-USA,USA,United States of America,Northern America,Americas,"Texas, Louisiana",,,
99317952bfbde052f7731817e3763423,2024-0463-CAN,CAN,Canada,Northern America,Americas,Quebec province,,,
a6aef88149dbd7f22df4971210586c0a,2024-0524-CAN,CAN,Canada,Northern America,Americas,National park Jasper (Alberta province); Colombie-Britannique,,,
d07757c2a27aff1bb1f06b9afb65c33f,2024-0573-CAN,CAN,Canada,Northern America,Americas,Quebec,,,
62bfee5b30189af15c1c47b9f893f2f2,2024-0573-USA,USA,United States of America,Northern America,Americas,"Tampa, Manatee, and St. Petersburg (Florida); Georgia; South Carolina, North Carolina, Virginia, New Yprk, Pennsylvania",,,
6ec9a4fcb234cb258ee01459e83bbe03,2024-0669-USA,USA,United States of America,Northern America,Americas,"Los Angeles, Orange, Riverside, San Bernardino counties (California); Grant, Crook, and Wheeler Counties (Oregon); Nevada",,,
906462b420bbd8a18bc41c17500dafc4,2024-0693-USA,USA,United States of America,Northern America,Americas,"Florida, Georgia, North Carolina, South Carolina, Tennessee, Kentucky, Indiana and Virginia",,,
ab8d0da25b8b64a6cc5c9c20c233bec4,2024-0722-USA,USA,United States of America,Northern America,Americas,"Hillsborough, Pinellas, Sarasota Volusia, Saint Petersburg, Tampa, (Florida state)",,,
d3c8fd83d0c60abb72065d86a11f7af9,2024-0788-USA,USA,United States of America,Northern America,Americas,"Roswell (Chaves county, Eastern New Mexico)",,,
9fa093f7e331e289388ea55628e9a8b3,2024-0814-USA,USA,United States of America,Northern America,Americas,"Oklahoma, Missouri, Arkansas states",,,
f194f72b869c0393494fcb6866b158eb,2024-0827-USA,USA,United States of America,Northern America,Americas,Ventura county (California),,,
8857c61647fd7bf2d2155651db0bbb73,2024-0897-USA,USA,United States of America,Northern America,Americas,"Near Malibu city, Santa Monica mountains (Los Angeles County, California)",,,
